index,name,address,city,zip,phone,email,full_address,website,OT,ST,PT,DT,EI,ABA,CBT,Pharmacotherapy,DialecticalBehavioralTherapy,SocialSkillsGroup,InHomeTherapy,OnSiteTherapy,School,Grades,ISBE,Tutoring,Ages,Insurance,Diagnosis,Arts,Dentist,AdultTransitional,Employment,AdultLiving,Business,Sibling,Other,lng,lat,coords
0,The Autism Treatment Program (Advocate Illinois Masonic Medical Center),3040 N Wilton Ave. 2nd Floor,Chicago,60657,773.296.7682,,"3040 N Wilton Ave. 2nd Floor Chicago, IL 60657",http://www.advocatehealth.com/immc-theautismtreatmentprogram,y,y,y,y,y,y,n,y,n,y,y,y,n,,,n,3-7years,y,y,n,n,n,N,N,n,,"Social skills, Sibling /family support groups",-87.6530528,41.9375274,"(41.9375274, -87.6530528)"
1,Eyas Landing,1409 W Carroll Ave.,Chicago,60607,312.733.0883,info@eyaslanding.com,"1409 W Carroll Ave. Chicago, IL 60607",http://eyaslanding.com/,Y,Y,Y,Y,Y,Y,n,n,n,n,Y,Y,Y,1-3,N,N,,Y,n,n,n,n,N,N,n,,"DIR floortime, Nutritional/Feeding Therapy, Sensory Integration, Therapeutic Listening, Yoga for the Special Child, GAPS Consultations, summer camps, connected with Bluebird Day School (Preschool-Kindergarten)",-87.66297089999999,41.8872366,"(41.8872366, -87.66297089999999)"
2,Blue Bird Day School,310 N Loomis St.,Chicago,60607,312.243.8487,info@blubirddayschool.com,"310 N Loomis St. Chicago, IL 60607",https://bluebirddayschool.com/,Y,Y,Y,Y,Y,Y,n,n,n,n,N,Y,Y,pre-k & K,N,n,3-6,Y,n,n,n,n,N,N,n,,,-87.6626594,41.8870083,"(41.8870083, -87.6626594)"
3,Blue Bird Day School,1921 W. Irving Park Rd.,Chicago,60613,773.687.9442,info@blubirddayschool.com,"1921 W. Irving Park Rd. Chicago, IL 60613",https://bluebirddayschool.com/,Y,Y,Y,Y,Y,Y,n,n,n,n,N,Y,Y,pre-k & K,N,n,3-6,Y,n,n,n,n,N,N,n,,,-87.6771059,41.95399099999999,"(41.95399099999999, -87.6771059)"
4,North Shore Pediatric Therapy,950 Lee St.,Des Plaines,60016,877.486.4140,info@nspt4kids.com,"950 Lee St. Des Plaines, IL 60016",http://nspt4kids.com/,Y,Y,N,N,Y,Y,n,n,n,n,Y,Y,N,,,Y,infant - 18 years,Y,y,n,n,n,N,N,n,,"Social Work, School Advocacy,",-87.89248169999999,42.0362459,"(42.0362459, -87.89248169999999)"
5,North Shore Pediatric Therapy,1308 Waukegan Rd. Ste. 103,Glenview,60025,877.486.4140,info@nspt4kids.com,"1308 Waukegan Rd. Ste. 103 Glenview, IL 60025",http://nspt4kids.com/,Y,Y,Y,N,Y,Y,n,n,n,n,Y,Y,N,,,Y,infant - 18 years,Y,y,n,n,n,N,N,n,,"Social Work, School Advocacy",-87.7988245,42.0782356,"(42.0782356, -87.7988245)"
6,North Shore Pediatric Therapy,1442 Old Skokie Road,Highland Park,60035,877.486.4140,info@nspt4kids.com,"1442 Old Skokie Road Highland Park, IL 60035",http://nspt4kids.com/,Y,Y,Y,N,Y,Y,n,n,n,n,Y,Y,N,,,Y,infant - 18 years,Y,y,n,n,n,N,N,n,,"Neuropsychology Intakes, Social Work, School Advocacy",-87.8194729,42.1786265,"(42.1786265, -87.8194729)"
7,North Shore Pediatric Therapy,917 Sherwood Dr. Ste. #201,Lake Bluff,60044,877.486.4140,info@nspt4kids.com,"917 Sherwood Dr. Ste. #201 Lake Bluff, IL 60044",http://nspt4kids.com/,Y,Y,Y,N,Y,Y,n,n,n,n,Y,Y,N,,,N,infant - 18 years,Y,y,n,n,n,N,N,n,,"Neuropsychology Intakes, Social Work, School Advocacy",-91.1339193,38.8030351,"(38.8030351, -91.1339193)"
8,North Shore Pediatric Therapy,4433 W. Touhy Ave. Ste. 335,Lincolnwood,60712,877.486.4140,info@nspt4kids.com,"4433 W. Touhy Ave. Ste. 335 Lincolnwood, IL 60712",http://nspt4kids.com/,Y,Y,Y,N,Y,Y,n,n,n,n,Y,Y,N,,,N,infant - 18 years,Y,y,n,n,n,N,N,n,,"Neuropsychology Intakes, Social Work, School Advocacy",-87.7396533,42.0113839,"(42.0113839, -87.7396533)"
9,North Shore Pediatric Therapy,2350 Ridge Ave.,Evanston,60201,877.486.4140,info@nspt4kids.com,"2350 Ridge Ave. Evanston, IL 60201",http://nspt4kids.com/,Y,Y,Y,N,Y,Y,n,n,n,n,Y,Y,N,,,N,infant - 18 years,Y,y,n,n,n,N,N,n,,School Advocacy,-87.6851117,42.0610132,"(42.0610132, -87.6851117)"
10,North Shore Pediatric Therapy,1657 W. Cortland St.,Chicago,60622,877.486.4140,info@nspt4kids.com,"1657 W. Cortland St. Chicago, IL 60622",http://nspt4kids.com/,Y,Y,Y,N,Y,Y,n,n,n,n,Y,Y,N,,,N,infant - 18 years,Y,y,n,n,n,N,N,n,,"Social Work, School Advocacy",-87.67005680000001,41.9158544,"(41.9158544, -87.67005680000001)"
11,Westside Children's Therapy,21000 Frankfort Square Rd.,Frankfort,60423,815.469.1500,admin@westsidechildrenstherapy.com,"21000 Frankfort Square Rd. Frankfort, IL 60423",http://westsidechildrenstherapy.com/,Y,Y,Y,N,N,Y,N,N,N,Y,Y,Y,N,,,N,,Y,N,N,N,N,N,N,N,,"Neurofeedback (EEG), Feeding Therapy, ABA Centered Social Groups",-87.8039146,41.5073024,"(41.5073024, -87.8039146)"
12,Westside Children's Therapy,750 Essington Rd.,Joliet,60435,815.729.2160,admin@westsidechildrenstherapy.com,"750 Essington Rd. Joliet, IL 60435",http://westsidechildrenstherapy.com/,Y,Y,Y,N,N,Y,N,N,N,Y,Y,Y,N,,,N,,Y,N,N,N,N,N,N,N,,"Neurofeedback (EEG), Feeding Therapy, ABA Centered Social Groups",-88.15972029999999,41.5360133,"(41.5360133, -88.15972029999999)"
13,Westside Children's Therapy,1725 S. Naperville Rd. #110,Wheaton,60187,630.509.4911,admin@westsidechildrenstherapy.com,"1725 S. Naperville Rd. #110 Wheaton, IL 60187",http://westsidechildrenstherapy.com/,Y,Y,Y,N,N,Y,N,N,N,Y,Y,Y,N,,,N,,Y,N,N,N,N,N,N,N,,"Neurofeedback (EEG), Feeding Therapy, ABA Centered Social Groups",-88.1012186,41.8399362,"(41.8399362, -88.1012186)"
14,"Rosenblatt, Alan MD",4711 Golf Road Suite 800,Skokie,60076,847-677-1818,,"4711 Golf Road Suite 800 Skokie, IL 60076",http://www.doctorrosenblatt.com/,N,N,N,N,N,N,n,y,n,n,,,N,,,N,0-18 years,N,y,n,n,n,N,N,n,,,-87.74383379999999,42.0540798,"(42.0540798, -87.74383379999999)"
15,Have Dreams,2020 Dempster St.,Evanston,60202,847.905.0702,info@havedreams.org,"2020 Dempster St. Evanston, IL 60202",http://havedreams.org/,N,N,N,N,N,N,N,N,N,Y,N,Y,Y,,,N,ALL AGES,N,N,Y,N,Y,Y,N,N,,,-87.70241399999999,42.0409687,"(42.0409687, -87.70241399999999)"
16,Have Dreams,515 Busse Highway Ste. 150,Park Ridge,60068,847.685.0250,info@havedreams.org,"515 Busse Highway Ste. 150 Park Ridge, IL 60068",http://havedreams.org/,N,N,N,N,N,N,N,N,N,Y,N,Y,Y,,,N,ALL AGES,N,N,Y,N,Y,Y,N,N,,,-87.8424769,42.0173393,"(42.0173393, -87.8424769)"
17,Center For Autism and Related Disorders (CARD),212 S. Marion St Suite 11,Oak Park,60302,855-345-2273,m.remoquillo@centerforautism.com,"212 S. Marion St Suite 11 Oak Park, IL 60302",http://www.centerforautism.com/,N,N,N,N,N,Y,N,N,N,N,Y,Y,N,,,N,2-21,Y,y,n,n,n,N,N,n,,,-87.802297,41.8851892,"(41.8851892, -87.802297)"
18,Center For Autism and Related Disorders (CARD),"603 Diehl Road, Suite 123",Naperville,60563,855-345-2273,m.mattucci@centerforautism.com,"603 Diehl Road, Suite 123 Naperville, IL 60563",http://www.centerforautism.com/,N,N,N,N,N,Y,N,N,N,N,Y,Y,N,,,N,2-21,Y,y,n,n,n,N,N,n,,,-88.1384348,41.80404009999999,"(41.80404009999999, -88.1384348)"
19,Center for Autism & Related Disorders,"1801 W. Warner Ave., Ste. 101",Chicago,60613,708.358.3000,m.remoquillo@centerforautism.com,"1801 W. Warner Ave., Ste. 101 Chicago, IL 60613",http://www.centerforautism.com/,N,N,N,N,N,Y,N,N,N,N,Y,Y,N,,,N,2-21,Y,y,n,n,n,N,N,n,,,-87.6746793,41.9566908,"(41.9566908, -87.6746793)"
20,Lurie Children's Hospital,225 E Chicago Ave,Chicago,60611,1800-kids-doc,,"225 E Chicago Ave Chicago, IL 60611",http://www.luriechildrens.org,N,N,N,N,N,N,n,y,n,y,N,Y,N,,,N,0-18,Y,y,n,n,n,N,N,n,,,-87.6218322,41.8962231,"(41.8962231, -87.6218322)"
21,Chicago Comer Children's Hospital,5721 S. Maryland Avenue,Chicago,60637,1-888-824-0200,,"5721 S. Maryland Avenue Chicago, IL 60637",http://www.uchicagokidshospital.org/,N,N,N,N,N,N,n,y,n,n,N,Y,N,,,N,0-18,Y,Y,n,n,n,N,N,n,,,-87.6045875,41.7901841,"(41.7901841, -87.6045875)"
22,Erikson Institute,451 North LaSalle Street,Chicago,60654,(312) 893-7119,ccf@erikson.edu,"451 North LaSalle Street Chicago, IL 60654",http://www.erikson.edu/,N,N,N,N,N,N,n,n,n,n,N,Y,n,,,N,0-8,y,y,n,n,n,N,N,n,,,-87.63208759999999,41.8906341,"(41.8906341, -87.63208759999999)"
23,Wellington Counseling Group,1011 W. Wellington Ave Suite 210,Chicago,60527,312-384-1940,info@wellingtoncounselinggroup.com,"1011 W. Wellington Ave Suite 210 Chicago, IL 60527",http://wellingtoncounselinggroup.com/,N,N,N,N,N,N,n,n,n,n,N,Y,N,,,N,ALL AGES,Y,y,n,n,n,N,N,n,,,-87.65430309999999,41.9361095,"(41.9361095, -87.65430309999999)"
24,Wellington Counseling Group,7101 N. Cicero Ave. Ste. 203,Chicago,60712,312-384-1940,info@wellingtoncounselinggroup.com,"7101 N. Cicero Ave. Ste. 203 Chicago, IL 60712",http://wellingtoncounselinggroup.com/,N,N,N,N,N,N,n,n,n,n,N,Y,N,,,N,ALL AGES,Y,y,n,n,n,N,N,n,,,-87.7476233,42.0103446,"(42.0103446, -87.7476233)"
25,Wellington Counseling Group,666 Dundee Rd. Ste. 708,Northbrook,60062,847.595.0940,info@wellingtoncounselinggroup.com,"666 Dundee Rd. Ste. 708 Northbrook, IL 60062",http://wellingtoncounselinggroup.com/,N,N,N,N,N,N,n,n,n,n,N,Y,N,,,N,ALL AGES,Y,y,n,n,n,N,N,n,,,-87.7978138,42.1398527,"(42.1398527, -87.7978138)"
26,Jewish Child & Family Services,3145 W Pratt,Chicago,60645,855.275.5237,ask@jcfs.org,"3145 W Pratt Chicago, IL 60645",http://jcfs.org/programs-services/testing-and-assessment/autism-assessment,N,N,N,N,N,N,n,n,n,n,N,Y,Y,pre-k-12,Y,n,all ages,y,y,n,n,n,N,N,n,,,-87.7088715,42.0038134,"(42.0038134, -87.7088715)"
27,Easter Seals,1939 W. 13th St. Ste. 300,Chicago,60608,630.282.2022,academychicago@eastersealschicago.org,"1939 W. 13th St. Ste. 300 Chicago, IL 60608",http://www.easterseals.com/chicago/,N,N,N,N,N,N,n,n,n,n,N,Y,y,pre-k-12,,n,all ages,y,y,n,n,y,N,N,n,,,-87.6747949,41.8646679,"(41.8646679, -87.6747949)"
28,Easter Seals Gilchrist Marchman Child Development Center,1312 S. Racine Ave.,Chicago,60608,312.492.7402,aomalley@eastersealschicago.org,"1312 S. Racine Ave. Chicago, IL 60608",http://www.easterseals.com/chicago/our-programs/childrens-services/GM-Child-Development-Center.html,N,N,N,N,N,N,n,n,n,n,N,Y,y,Pre-k,,n,6 mos-5 years,N,N,N,N,N,N,N,N,,,-87.6577277,41.8649039,"(41.8649039, -87.6577277)"
29,Easter Seals,17300 Ozark Ave.,Tinley Park,60477,708.802.9050,academytinley@easterseals.org,"17300 Ozark Ave. Tinley Park, IL 60477",http://www.easterseals.com/chicago/,N,N,N,N,N,N,n,n,n,n,N,Y,y,pre-k-12,,n,all ages,y,y,n,n,y,N,N,n,,,-87.8069682,41.5775093,"(41.5775093, -87.8069682)"
30,UIC Autism Clinic and TAP Training Center,1640 W. Roosevelt Rd.,Chiacgo,60608,312.413.1490,jagorski@uic.edu (emailed 4/15/18),"1640 W. Roosevelt Rd. Chiacgo, IL 60608",http://www.ahs.uic.edu/cl/familyclinics/programs/autismclinicandtaptrainingcenter/,N,N,N,N,N,N,,,,,N,Y,n,,,n,,,Y,N,N,N,N,N,N,,,-87.6675434,41.8669748,"(41.8669748, -87.6675434)"
31,Rush University AARTS Center,"1645 W Jackson, Suite 603",Chicago,60612,888.352.7874,,"1645 W Jackson, Suite 603 Chicago, IL 60612",https://www.rush.edu/services-conditions/autism-assessment-research-treatment-and-services-center/about-aarts-center-rush,Y,Y,N,N,N,N,n,y,n,n,N,Y,N,,,N,all ages,,Y,N,N,N,N,N,N,,,-87.6684002,41.8772572,"(41.8772572, -87.6684002)"
32,Jennifer Gorski,1011 Lake St. Suite 406,Oak Park,60301,773.904.0425,jgorskiphd@gmail.com,"1011 Lake St. Suite 406 Oak Park, IL 60301",http://www.drjennifergorski.com/,n,N,N,N,N,N,N,n,n,n,N,Y,N,,,N,0-100YRS,N,Y,N,N,N,N,N,N,,N,-87.80111579999999,41.8884731,"(41.8884731, -87.80111579999999)"
33,Loyola University,2160 S. First Ave,Maywood,60153,708.216.0135,,"2160 S. First Ave Maywood, IL 60153",http://www.stritch.luc.edu/depts/psych/specialties/adolescent_and_childrens_psychiatry.htm,N,N,N,N,N,N,N,y,n,n,N,Y,N,n/A,,N,0-18 YRS,Y,Y,N,N,N,N,N,N,,N,-87.8360955,41.8576097,"(41.8576097, -87.8360955)"
34,Little Friends Center for Autism,140 N Wright Street,Naperville,60540,630.305.4196,info@lilfriends.com,"140 N Wright Street Naperville, IL 60540",http://littlefriendsinc.org/,N,Y,N,N,N,Y,N,N,N,Y,Y,Y,Y,K-12,Y,N,ALL AGES,Y,Y,N,N,y,Y,Y,N,,N,-88.1386321,41.77683,"(41.77683, -88.1386321)"
35,Caravel Autism Health,770 Lake Cook Rd. Ste 230,Deerfield,60015,844.583.5437,info@caravelautism.com,"770 Lake Cook Rd. Ste 230 Deerfield, IL 60015",http://caravelautism.com/,N,N,N,N,N,Y,n,n,n,n,n,y,N,,,N,0-18,Y,y,n,n,n,N,N,n,,,-87.84634229999999,42.1533703,"(42.1533703, -87.84634229999999)"
36,Caravel Autism Health,"1979 Mill St., Ste. 204",Naperville,60563,844.583.5437,info@caravelautism.com,"1979 Mill St., Ste. 204 Naperville, IL 60563",http://caravelautism.com/,n,n,n,n,n,y,n,n,n,n,n,y,n,,,n,0-18,y,y,n,n,n,N,N,n,,n,-88.1565076,41.8034905,"(41.8034905, -88.1565076)"
37,Caravel Autism Health,"1111 Plaza Dr., Ste. 580",Schaumburg,60173,844.583.5437,info@caravelautism.com,"1111 Plaza Dr., Ste. 580 Schaumburg, IL 60173",http://caravelautism.com/,n,n,n,n,n,y,n,n,n,n,n,y,n,,,n,0-18,y,y,n,n,n,N,N,n,,n,-88.04249829999999,42.04894460000001,"(42.04894460000001, -88.04249829999999)"
38,Early Intervention for Autism,?,northshore area,?,847.915.0164,jenniferm@earlyinterventionforautism.com,"? northshore area, IL ?",http://www.earlyinterventionforautism.com/,N,N,N,N,N,Y,n,n,n,y,Y,N,N,,,N,0-18,Y,n,n,n,n,N,N,n,,,-88.3614753,42.24002309999999,"(42.24002309999999, -88.3614753)"
39,Labyrinth Counseling & Consulting Center,1770 Park St. Ste. 109,Naperville,60563,630.305.5702,renee.carson16@gmail.com,"1770 Park St. Ste. 109 Naperville, IL 60563",http://www.labyrinthcounseling.com/behavioranalysts.php,N,N,N,N,N,Y,n,n,n,n,y,n,N,,,N,all ages,Y,n,n,n,n,N,N,n,,,-88.14785049999999,41.8009228,"(41.8009228, -88.14785049999999)"
40,Monarch Autism Therapy Services,3611 Indian Head Ln.,Joliet,60435,815.630.2220,,"3611 Indian Head Ln. Joliet, IL 60435",http://www.monarchats.com/home.html,N,Y,N,N,N,Y,N,N,N,N,Y,N,N,,,N,ALL AGES,Y,N,N,N,N,N,N,N,,,-88.15656589999999,41.5883857,"(41.5883857, -88.15656589999999)"
41,Reach ABA,?,Chicago,?,773.609.4076,admin@reachaba.com,"? Chicago, IL ?",http://www.reachaba.com/,N,N,N,N,N,Y,N,N,N,Y,Y,N,N,,,N,,Y,N,N,N,N,N,N,N,,,-87.6297982,41.8781136,"(41.8781136, -87.6297982)"
42,Center for Behavior Intervention,19056 Henry Dr.,Mokena,60448,708.995.5751,info@cbitherapy.com,"19056 Henry Dr. Mokena, IL 60448",http://www.cbitherapy.com/index.html,N,N,N,N,N,Y,n,n,n,n,Y,Y,N,,,N,ALL AGES,Y,N,N,N,N,N,N,N,,,-87.84679469999999,41.5438348,"(41.5438348, -87.84679469999999)"
43,Steinberg Behavior Solutions,4711 Golf Rd. Ste. 100,Skokie,60076,847.676.5398,sarah@sbsaba.com,"4711 Golf Rd. Ste. 100 Skokie, IL 60076",http://www.steinbergbehaviorsolutions.com/,N,N,N,N,N,Y,n,n,n,n,Y,Y,N,,,N,"all ages, but focus on pediatrics",Y,N,N,N,N,N,N,N,,,-87.74383379999999,42.0540798,"(42.0540798, -87.74383379999999)"
44,Trumpet Behavioral Health,3851 W. Devon Ave.,Chicago,60659,872.208.7893,info@tbh.com,"3851 W. Devon Ave. Chicago, IL 60659",http://www.tbh.com/,N,N,N,N,Y,Y,n,n,n,n,Y,Y,N,,,N,0-18,Y,N,N,N,N,N,N,N,,,-87.7259498,41.9970044,"(41.9970044, -87.7259498)"
45,Trumpet Behavioral Health,28045 N Ashley Cir. Ste. 201,Libertyville,60048,630.225.8604,info@tbh.com,"28045 N Ashley Cir. Ste. 201 Libertyville, IL 60048",http://www.tbh.com/,N,N,N,N,Y,Y,n,n,n,n,Y,Y,N,,,N,0-18,Y,N,N,N,N,N,N,N,,,-87.9090389,42.2701655,"(42.2701655, -87.9090389)"
46,Helping Hand Center,9469 W. 55th St.,Countryside,60525,708.352.3580,info@hhcenter.org,"9469 W. 55th St. Countryside, IL 60525",http://www.hhrehab.org/index.html,Y,Y,Y,N,Y,N,n,n,n,y,n,Y,Y,,Y,N,3-22,Y,n,y,n,y,y,y,n,,Music Therapy,-87.8596389,41.7901418,"(41.7901418, -87.8596389)"
47,By Your Side,"16W361 S. Frontage Rd, Suite 131",Burr Ridge,60527,630.590.5571,info@byyoursideac.com,"16W361 S. Frontage Rd, Suite 131 Burr Ridge, IL 60527",http://byyoursideac.com/,Y,Y,N,N,N,Y,n,n,n,y,Y,Y,N,pre-k,,N,3 yrs and up,y,n,n,n,n,N,N,n,,"Social Groups, feeding therapy, family counseling",-87.94214819999999,41.73891800000001,"(41.73891800000001, -87.94214819999999)"
48,By Your Side,1920 Thoreau Dr. N #180,Schaumburg,60173,847.496.5513,info@byyoursideac.com,"1920 Thoreau Dr. N #180 Schaumburg, IL 60173",http://byyoursideac.com/,Y,Y,N,N,N,Y,n,n,n,y,Y,Y,y,pre-k,,N,3 yrs and up,y,n,n,n,n,N,N,n,,"Social Groups, feeding therapy, family counseling",-88.04249829999999,42.0634765,"(42.0634765, -88.04249829999999)"
49,By Your Side,"8145 River Drive, Ste. 101",Morton Grove,60053,224.470.1111,info@byyoursideac.com,"8145 River Drive, Ste. 101 Morton Grove, IL 60053",http://byyoursideac.com/,Y,Y,N,N,N,Y,n,n,n,y,Y,Y,y,pre-k,,N,3 yrs and up,,n,n,n,n,N,N,n,,"Social Groups, feeding therapy, family counseling",-87.7844803,42.0291926,"(42.0291926, -87.7844803)"
50,By Your Side,8200 W. 185th St. Ste A/B,Tinley Park,60487,708.580.0440,info@byyoursideac.com,"8200 W. 185th St. Ste A/B Tinley Park, IL 60487",http://byyoursideac.com/,Y,Y,N,N,N,Y,n,n,n,y,Y,Y,y,pre-k,,N,3 yrs and up,,n,n,n,n,N,N,n,,"Social Groups, feeding therapy, family counseling",-87.81889699999999,41.5548295,"(41.5548295, -87.81889699999999)"
51,Rachel Loftin,"180 N Michigan Ave., Suite 2411",Chicago,60601,(312) 730-4798,rachelloftinphd@gmail.com,"180 N Michigan Ave., Suite 2411 Chicago, IL 60601",https://www.rachelloftin.com/,N,N,N,N,N,N,Y,n,n,n,N,Y,N,,,N,all ages,n,y,n,n,n,N,N,n,,,-87.6249282,41.8855541,"(41.8855541, -87.6249282)"
52,Advanced Behavioral Solutions,2060 E Algonquin Rd Ste 720,Schaumburg,60173,847-496-4693,help@advancedbehavioralsolutions.com,"2060 E Algonquin Rd Ste 720 Schaumburg, IL 60173",http://www.advancedbehavioralsolutions.com/index.html,N,N,N,N,N,N,N,n,n,Y,N,Y,N,,,N,3+,y,y,n,n,n,N,N,n,,,-88.0295067,42.0661918,"(42.0661918, -88.0295067)"
53,Alexian Brothers Behavioral Health Hospital,1555 Barrington Road,Hoffman Estates,Alexian Brothers Behavioral Health Hospital,847-981-3630,NeurosciencesInstitute@AMITAhealth.org,"1555 Barrington Road Hoffman Estates, IL Alexian Brothers Behavioral Health Hospital",http://www.alexianbrothershealth.org/neurosciences/services/neuropsychological/pediatrics/,N,N,N,N,N,N,N,N,N,N,N,Y,N,,,n,All ages,Y,y,N,N,N,N,N,N,,,-88.13741379999999,42.05405680000001,"(42.05405680000001, -88.13741379999999)"
54,"Michael S Appleby, PhD",211 W Chicago Ave Ste 211,Hinsdale ,60521,630-323-0211,Info@DrAppleby.com,"211 W Chicago Ave Ste 211 Hinsdale , IL 60521",http://www.drappleby.com/,N,N,N,N,N,N,N,N,N,N,N,Y,N,,,N,0-18,Y,Y,N,N,N,N,N,N,,,-87.9329441,41.8038917,"(41.8038917, -87.9329441)"
55,BrainTree Neuropsychological Services,"1101 Lake St., Ste 306",Oak Park,60301,(708) 445-3771,monastepansky@braintreeservices.com,"1101 Lake St., Ste 306 Oak Park, IL 60301",http://www.braintreeservices.com/,N,N,N,N,N,N,N,N,N,N,N,Y,N,,,N,0-21,Y,Y,N,N,N,N,N,N,,,-87.8026635,41.8885251,"(41.8885251, -87.8026635)"
56,Chicago Neurodevelopmental Center,601 Skokie Blvd. Ste. 203,Northbrook,60062,847.272.2484,avictor@chicagoneuro.org,"601 Skokie Blvd. Ste. 203 Northbrook, IL 60062",http://chicagoneurodevelopmentalcenter.org/,N,N,N,N,N,N,Y,N,N,N,N,Y,N,,,N,0-18,N,Y,N,N,N,N,N,N,,,-87.7932871,42.1413575,"(42.1413575, -87.7932871)"
57,Chicago Neurodevelopmental Center,3166 N. Lincoln Ave. Ste 400B,Chicago,60657,847.272.2484,avictor@chicagoneuro.org,"3166 N. Lincoln Ave. Ste 400B Chicago, IL 60657",http://chicagoneurodevelopmentalcenter.org/,N,N,N,N,N,N,Y,N,N,N,N,Y,N,,,N,0-18,N,Y,N,N,N,N,N,N,,,-87.6682584,41.9391562,"(41.9391562, -87.6682584)"
58,Comprehensive Psychological Services,3233 N. Arlington Heights Rd. Ste. 208,Arlington Heights,60004,847.632.0334,mfrey@psych4kids.com,"3233 N. Arlington Heights Rd. Ste. 208 Arlington Heights, IL 60004",https://psych4kids.com/,N,N,N,N,N,N,Y,N,N,N,N,Y,N,,,N,0-18,N,Y,N,N,N,N,N,N,,,-87.98073629999999,42.1336227,"(42.1336227, -87.98073629999999)"
59,Edgewood Clinical Services,600 E. Diehl Rd. Ste. 110,Naperville,60563,630.428.7890,info@edgewoodclinicalservices.com,"600 E. Diehl Rd. Ste. 110 Naperville, IL 60563",http://www.edgewoodclinicalservices.com/,N,N,N,N,N,N,N,N,N,Y,N,Y,N,,,N,0-18,N,Y,N,N,N,N,N,N,,,-88.13738219999999,41.8026236,"(41.8026236, -88.13738219999999)"
60,Edgewood Clinical Services,2498 Artesian Rd. Ste. 112,Naperville,60564,630.428.7890,info@edgewoodclinicalservices.com,"2498 Artesian Rd. Ste. 112 Naperville, IL 60564",http://www.edgewoodclinicalservices.com/,N,N,N,N,N,N,N,Y,N,Y,N,Y,N,,,N,0-18,N,Y,N,N,N,N,N,N,,,-88.20380759999999,41.7252141,"(41.7252141, -88.20380759999999)"
61,Edgewood Clinical Services,14722 S. Naperville Rd. Ste. 100,Plainfield,60544,630.428.7890,info@edgewoodclinicalservices.com,"14722 S. Naperville Rd. Ste. 100 Plainfield, IL 60544",http://www.edgewoodclinicalservices.com/,N,N,N,N,N,N,N,N,N,Y,N,Y,N,,,N,0-18,N,Y,N,N,N,N,N,N,,,-88.20129779999999,41.615303,"(41.615303, -88.20129779999999)"
62,Edgewood Clinical Services,"1500 Eisenhower Lane, Ste. 900",Lisle,60532,630.428.7890,info@edgewoodclinicalservices.com,"1500 Eisenhower Lane, Ste. 900 Lisle, IL 60532",http://www.edgewoodclinicalservices.com/,N,N,N,N,N,N,N,N,N,Y,N,Y,N,,,N,0-18,N,Y,N,N,N,N,N,N,,,-88.0816121,41.7866882,"(41.7866882, -88.0816121)"
63,Pediatric Neuropsychology Diagnostic and Treatment Center,16001 S. 108th Ave. Ste. 2,Orland Park,60467,708.403.9000,ndcbrain@aol.com,"16001 S. 108th Ave. Ste. 2 Orland Park, IL 60467",http://www.ndcbrain.com/index.html,N,N,N,N,N,N,N,N,N,N,N,Y,N,,,N,0-21,Y,Y,N,N,N,N,N,N,,,-87.8808267,41.59848150000001,"(41.59848150000001, -87.8808267)"
64,Build-n-Care Therapy,?,Chicago,?,312.429.4920,info@buildncare.com,"? Chicago, IL ?",http://buildncare.com/,N,Y,N,N,N,Y,n,N,N,N,y,n,n,,n/A,n,0-21 ,Y,N,N,N,N,N,N,N,,,-87.6297982,41.8781136,"(41.8781136, -87.6297982)"
65,KGH Consultation & Treatment,3100 Dundee Rd. Ste. 704,Northbrook,60062,847.498.5437,info@kghconsultation.org,"3100 Dundee Rd. Ste. 704 Northbrook, IL 60062",kghconsultation.org,Y,Y,N,N,N,Y,N,N,N,Y,Y,Y,N,,,Y,0-22,Y,N,N,N,Y,N,N,N,,,-87.8557044,42.1391931,"(42.1391931, -87.8557044)"
66,Arlington Pediatric Therapy,"3105 N. Wilke Rd, Ste. H",Arlington Heights,60004,847.255.8690,APTLTD@ix.netcom.com,"3105 N. Wilke Rd, Ste. H Arlington Heights, IL 60004",http://www.arlingtonpediatrictherapy.com/,Y,Y,Y,Y,N,N,N,N,N,N,N,Y,N,,,N,0-25,Y,N,Y,N,N,N,N,N,,Aquatic therapy,-88.0036417,42.1329054,"(42.1329054, -88.0036417)"
67,Aspire Kids,1815 S. Wolf Rd.,Hillside,60162,708.236.0979,info@aspirechicago.com,"1815 S. Wolf Rd. Hillside, IL 60162",https://www.aspirechicago.com/,Y,Y,Y,Y,Y,N,N,N,N,N,y,y,N,,,N,0-18,Y,N,N,N,N,N,N,N,,,-87.9007611,41.8522115,"(41.8522115, -87.9007611)"
68,Aspire Kids,3235 W. Montrose Ave.,Chicago,60618,773.878.7868,info@aspirechicago.com,"3235 W. Montrose Ave. Chicago, IL 60618",https://www.aspirechicago.com/,Y,Y,Y,Y,Y,N,N,N,N,N,y,y,N,,,N,0-18,Y,N,N,N,N,N,N,N,,,-87.70966059999999,41.96093399999999,"(41.96093399999999, -87.70966059999999)"
69,"Cawn/Krantz & Assoc., Ltd.",650 Academy Dr.,Northbrook,60062,847.480.8890,caroline@cawn-krantz.com,"650 Academy Dr. Northbrook, IL 60062",http://www.cawn-krantz.com/,Y,Y,N,Y,N,N,N,N,N,N,N,Y,N,,,N,0-18,Y,N,Y,N,N,N,N,N,,,-87.8576159,42.14219,"(42.14219, -87.8576159)"
70,Aspire Careers and Living,4110 Litt Dr.,Hillside,60162,(708) 236-0979,info@aspirechicago.com,"4110 Litt Dr. Hillside, IL 60162",https://www.aspirechicago.com/,N,N,N,N,N,N,N,N,N,N,N,Y,N,,,N,21 AND UP,,N,Y,N,Y,Y,Y,N,,,-87.88702440000002,41.8803429,"(41.8803429, -87.88702440000002)"
71,Aspire Living,9901 Derby Ln.,Westchester,60154,(708) 547-3560,living@aspirechicago.com,"9901 Derby Ln. Westchester, IL 60154",https://www.aspirechicago.com/,N,N,N,N,N,N,N,N,N,N,N,Y,N,,,N,21 AND UP,,N,Y,N,Y,Y,Y,N,,,-87.870511,41.8623235,"(41.8623235, -87.870511)"
72,"Cawn/Krantz & Assoc., Ltd.",2319 N. Orchard St. ,Chicago,60614,847.480.8890,caroline@cawn-krantz.com,"2319 N. Orchard St.  Chicago, IL 60614",http://www.cawn-krantz.com/,Y,Y,N,Y,N,N,N,N,N,N,N,Y,N,,,N,0-18,Y,N,Y,N,N,N,N,N,,,-87.6460084,41.9243044,"(41.9243044, -87.6460084)"
73,Children's Therapy & Rehab Specialists,"790 Fletcher Dr., Ste. 101",Elgin,60123,847.697.7800,info@childtherapyrehab.com,"790 Fletcher Dr., Ste. 101 Elgin, IL 60123",http://www.childtherapyrehab.com/,Y,Y,Y,N,N,Y,N,N,N,N,N,y,N,,,N,0-18,Y,N,n,n,n,N,N,n,,,-88.3355452,42.0538622,"(42.0538622, -88.3355452)"
74,Children's Therapy & Rehab Specialists,"2031 E. Grand Ave., Ste. 100",Lindenhurst,60046,847.265.1460,info@childtherapyrehab.com,"2031 E. Grand Ave., Ste. 100 Lindenhurst, IL 60046",http://www.childtherapyrehab.com/,Y,Y,Y,N,N,Y,N,N,N,N,N,y,N,,,N,0-18,Y,N,n,n,n,N,N,n,,,-88.03364739999999,42.409591,"(42.409591, -88.03364739999999)"
75,Children's Therapy & Rehab Specialists,424 N Rand Rd.,North Barrington,60010,847.756.2680,info@childtherapyrehab.com,"424 N Rand Rd. North Barrington, IL 60010",http://www.childtherapyrehab.com/,Y,Y,Y,N,N,Y,N,N,N,N,N,y,N,,,N,0-18,Y,N,n,n,n,N,N,n,,,-88.11259129999999,42.2327382,"(42.2327382, -88.11259129999999)"
76,Communication Clubhouse,2901 Finley Rd. #102,Downers Grove,60515,630.495.6800,admin@communicationclubhouse.com,"2901 Finley Rd. #102 Downers Grove, IL 60515",http://communicationclubhouse.com/,Y,Y,Y,N,Y,N,N,N,N,Y,y,y,n,,,N,0-18,Y,N,N,N,N,N,N,N,,,-88.0250734,41.8364058,"(41.8364058, -88.0250734)"
77,Communication Clubhouse,4958 N Milwaukee Ave.,Chicago,60630,773.205.8505,admin@communicationclubhouse.com,"4958 N Milwaukee Ave. Chicago, IL 60630",http://communicationclubhouse.com/,Y,Y,Y,N,Y,N,N,N,N,Y,y,y,n,,,N,0-18,Y,N,N,N,N,N,N,N,,,-87.7638686,41.97098090000001,"(41.97098090000001, -87.7638686)"
78,Kids in Motion,4721 Midlothian Tpke. Ste 25,Crestwood,60445,708.371.7007,frontdesk@kidsinmotion.org,"4721 Midlothian Tpke. Ste 25 Crestwood, IL 60445",http://www.kidsinmotion.org/,Y,Y,Y,N,N,N,N,N,N,N,N,Y,N,,,N,0-18,,N,N,N,N,N,N,N,,,-87.7357062,41.6381121,"(41.6381121, -87.7357062)"
79,Imagine Pediatric Therapy,606 W. Roosevelt Rd.,Chicago,60607,312.588.5050,info@imaginepeds.com,"606 W. Roosevelt Rd. Chicago, IL 60607",http://www.imaginepeds.com/,Y,Y,y,N,N,N,n,N,N,N,n,y,n,,,n,0-12,y,n,n,n,n,N,N,n,,,-87.6424146,41.8675113,"(41.8675113, -87.6424146)"
80,Hatter Pediatric Occupational Therapy Services,2176 Gladstone Ct. Ste A/B,Glendale Heights,60139,630.715.0095,ahatterot@att.net,"2176 Gladstone Ct. Ste A/B Glendale Heights, IL 60139",none,Y,Y,N,N,N,N,n,N,N,N,n,y,n,,,n,0-18,y,n,n,n,n,N,N,n,,,-88.08526719999999,41.9386894,"(41.9386894, -88.08526719999999)"
81,Kids Can Do Inc.,19100 S. Crescent Dr. Ste. 101,Mokena,60448,708.478.5400,info@kidscando.org,"19100 S. Crescent Dr. Ste. 101 Mokena, IL 60448",https://www.kidscando.org/,Y,Y,Y,N,N,N,n,N,N,Y,y,y,n,,,n,0-18,y,n,n,n,n,N,N,n,,,-87.87453789999999,41.5422149,"(41.5422149, -87.87453789999999)"
82,Kids in Sync,2211 Elston Ave. Ste. 102,Chicago,60614,773.235.5070,info@kids-in-sync.com,"2211 Elston Ave. Ste. 102 Chicago, IL 60614",https://www.kids-in-sync.com/,Y,N,N,N,n,N,n,N,N,N,y,y,n,,,n,0-18,y,n,n,n,n,N,N,n,,,-87.6723681,41.9220998,"(41.9220998, -87.6723681)"
83,Kids in Sync,420 Frontage Rd. Ste. 200,Northfield,60093,847.784.9115,info@kids-in-sync.com,"420 Frontage Rd. Ste. 200 Northfield, IL 60093",https://www.kids-in-sync.com/,Y,N,N,N,n,N,n,N,N,N,y,y,n,,,n,0-18,y,n,n,n,n,N,N,n,,,-87.769519,42.102992,"(42.102992, -87.769519)"
84,LaRabida Children's Hospital,6501 S. Promontory Dr.,Chicago,60649,773.256.5957,,"6501 S. Promontory Dr. Chicago, IL 60649",http://larabida.org/page-premier-kids,Y,Y,Y,Y,Y,N,n,N,N,N,y,y,n,,,n,0-6,y,n,n,n,n,N,N,n,,,-87.57148529999999,41.7774249,"(41.7774249, -87.57148529999999)"
85,Leep Forward,1280 W. Washington Blvd.,Chicago,60607,312.624.8750,lorell@leepforward.com,"1280 W. Washington Blvd. Chicago, IL 60607",http://www.leepforward.com/,Y,Y,N,Y,Y,N,n,N,N,Y,y,y,y,pre-k-3,,n,,y,n,n,n,n,N,N,n,,,-87.6598242,41.8832113,"(41.8832113, -87.6598242)"
86,Lumiere Children's Therapy,811 W. Evergreen Ave. Ste. 404,Chicago,60642,312.242.1665,info@lumierechild.com,"811 W. Evergreen Ave. Ste. 404 Chicago, IL 60642",http://lumierechild.com/,Y,Y,Y,Y,Y,N,y,N,N,Y,y,y,y,pre-k,,n,0-18,y,n,n,n,n,N,N,n,,,-87.64878700000001,41.906123,"(41.906123, -87.64878700000001)"
87,Oak-Leyden Developmental Services,411 Chicago Ave.,Oak Park,60302,708.524.1050,info@oak-leyden.org,"411 Chicago Ave. Oak Park, IL 60302",http://oak-leyden.org/childrens-services,Y,Y,Y,N,Y,N,N,N,N,N,Y,Y,N,,,N,all ages,y,?,y,n,y,N,N,n,,,-87.78551780000001,41.894299,"(41.894299, -87.78551780000001)"
88,Oak Tree Development Center,1640 N. Wells St. #103,Chicago,60614,312.642.4300,oaktree@oaktreekids.com,"1640 N. Wells St. #103 Chicago, IL 60614",http://www.oaktreekids.com/,Y,Y,Y,N,Y,N,n,N,N,Y,y,y,n,,,n,0-10,y,n,n,n,n,N,N,n,,,-87.6354498,41.9122822,"(41.9122822, -87.6354498)"
89,School-Ready Therapy,23527 East Road,Lake Zurich,60047,847.438.0993,mary@school-readytherapy.com,"23527 East Road Lake Zurich, IL 60047",http://www.school-readytherapy.com/,Y,N,N,N,N,N,n,N,N,N,n,y,n,n/A,n/A,n,3-18 yrs,y,n,n,n,n,N,N,n,,,-88.0491682,42.2054469,"(42.2054469, -88.0491682)"
90,Small Friends Therapy,4457 N. Maplewood Ave.,Chicago,60625,773.951.7201,smallfriendstherapy@gmail.com,"4457 N. Maplewood Ave. Chicago, IL 60625",http://www.smallfriendstherapy.com/index.html,Y,N,N,N,N,N,n,N,N,N,y,n,n,n/A,n/A,n,3-21 yrs,y,n,n,n,n,N,N,n,,,-87.69216209999999,41.9629393,"(41.9629393, -87.69216209999999)"
91,Hand Therapy & Occupational Rehab Services,6320 159th St. Ste. F,Oak Forest,60452,708.687.8768,asharm@handrehabclinic.com,"6320 159th St. Ste. F Oak Forest, IL 60452",http://www.handrehabclinic.com/Pediatric-Therapy.html,Y,N,N,N,Y,N,n,N,N,N,n,y,n,n/A,n/A,n,0-18,y,n,n,n,n,N,N,n,,,-87.77447529999999,41.6030405,"(41.6030405, -87.77447529999999)"
92,Therapeutic Links,15 Commerce Dr. #111,Grayslake,60030,847.548.3458,sharon@therapeuticlinks.com,"15 Commerce Dr. #111 Grayslake, IL 60030",http://www.therapeuticlinks.com/,Y,N,N,N,Y,N,n,N,N,Y,y,y,n,n/A,n/A,n,0-18,y,n,n,n,n,N,N,n,,,-88.0192635,42.3438158,"(42.3438158, -88.0192635)"
93,"Timber Ridge Pediatric Therapy, LLC, WEE Speech, PC",8833 Gross Point Rd. Ste. 307,Skokie,60077,847.877.5210,info@timberridgetherapy.com,"8833 Gross Point Rd. Ste. 307 Skokie, IL 60077",http://timberridgetherapy.com/wp/,Y,Y,Y,N,Y,N,n,N,N,Y,y,y,n,n/A,n/A,n,0-21,y,n,n,n,n,N,N,n,,,-87.75504649999999,42.0416943,"(42.0416943, -87.75504649999999)"
94,By Your Side,"16W361 S. Frontage Rd, Suite 131",Burr Ridge,60527,630.590.5571,info@byyoursideac.com,"16W361 S. Frontage Rd, Suite 131 Burr Ridge, IL 60527",http://byyoursideac.com/,Y,Y,N,N,N,Y,y,N,N,Y,y,y,n,n/A,n/A,n,3 and up,y,n,n,n,n,N,N,n,,,-87.94214819999999,41.73891800000001,"(41.73891800000001, -87.94214819999999)"
95,By Your Side,1920 Thoreau Dr. N #180,Schaumburg,60173,847.496.5513,info@byyoursideac.com,"1920 Thoreau Dr. N #180 Schaumburg, IL 60173",http://byyoursideac.com/,Y,Y,N,N,N,Y,Y,N,N,Y,y,y,n,n/A,n/A,n,3 and up,y,n,n,n,n,N,N,n,,,-88.04249829999999,42.0634765,"(42.0634765, -88.04249829999999)"
96,Center for Speech and Language Disorders,820 N. Orleans,Chicago,60654,630.652.0200,maryb@csld.org,"820 N. Orleans Chicago, IL 60654",http://www.csld.org/,N,Y,N,N,N,N,n,N,N,Y,n,y,n,n/A,n/A,n,3-21,y,n,n,n,n,N,N,n,,,-87.6383026,41.8972278,"(41.8972278, -87.6383026)"
97,Center for Speech and Language Disorders,310-D S. Main St.,Lombard,60148,630.652.0200,maryb@csld.org,"310-D S. Main St. Lombard, IL 60148",http://www.csld.org,N,Y,N,N,N,N,n,N,N,Y,n,y,n,n/A,n/A,n,3-21,y,n,n,n,n,N,N,n,,,-88.0184438,41.88221619999999,"(41.88221619999999, -88.0184438)"
98,Charlie's Gift Center for Autism and Related Disorders,1048 W. Ogden Ave. #200,Downers Grove,60515,630.810.1200,cromanini@charliesgift.org,"1048 W. Ogden Ave. #200 Downers Grove, IL 60515",http://www.thecommunityhouse.org/what-we-do/charliesgift/,Y,Y,N,N,n,N,y,N,N,Y,n,y,n,n/A,n/A,n,0-18,y,n,n,n,n,N,N,n,,,-115.3539433,47.5982908,"(47.5982908, -115.3539433)"
99,Chicago Speech Therapy,1422 W. Willow St. Ste. 101,Chicago,60642,312.399.0370,quinnniego@gmail.com,"1422 W. Willow St. Ste. 101 Chicago, IL 60642",http://www.chicagospeechtherapy.com/,N,Y,N,N,N,N,n,N,N,N,y,y,n,n/A,n/A,n,1-12,y,n,n,n,n,N,N,n,,,-87.6628611,41.9145142,"(41.9145142, -87.6628611)"
100,Chicago Occupational Therapy,1422 W. Willow St. Ste.100,Chicago,60642,773.980.0300,quinnniego@gmail.com,"1422 W. Willow St. Ste.100 Chicago, IL 60642",www.chicagooccupationaltherapy.com,Y,N,N,N,N,N,n,N,N,N,y,y,n,n/A,n/A,n,1-12,y,n,n,n,n,N,N,n,,,-87.6628611,41.9145142,"(41.9145142, -87.6628611)"
101,Chicago ABA Therapy,"1422 W. Willow, Ste. 102",Chicago,60642,773.630.4400,quinnniego@gmail.com,"1422 W. Willow, Ste. 102 Chicago, IL 60642",www.chicagoabatherapy.com,N,N,N,N,N,Y,n,N,N,N,y,y,n,n/A,n/A,n,1-12,y,n,n,n,n,N,N,n,,,-87.6628611,41.9145142,"(41.9145142, -87.6628611)"
102,Communication is the Key,2109 E. 87th St.,Chicago,60617,773.517.7669,,"2109 E. 87th St. Chicago, IL 60617",http://www.chicagokidsandadultsspeechtherapy.com/,N,Y,N,N,n,N,n,N,N,N,n,y,n,n/A,n/A,n,2.5 and up,y,n,n,n,n,N,N,n,,,-87.57282070000001,41.7368216,"(41.7368216, -87.57282070000001)"
103,Communication Therapy Services,55 Ascot Ln.,Aurora,60504,630.499.9169,info@communicationtherapyservices.com,"55 Ascot Ln. Aurora, IL 60504",http://www.communicationtherapyservices.com/,Y,Y,N,N,n,N,n,N,N,Y,n,y,n,n/A,n/A,n,2-18 yrs,y,n,n,n,n,N,N,n,,,-88.2461754,41.7539375,"(41.7539375, -88.2461754)"
104,Community Therapy Services,40 W 310 LaFox Rd. Ste. A1/B1,St. Charles,60175,630.444.0077,info@ctspediatrics.com,"40 W 310 LaFox Rd. Ste. A1/B1 St. Charles, IL 60175",http://ctspediatrics.com/,Y,Y,Y,N,Y,N,n,N,N,Y,y,y,n,n/A,n/A,n,0-18,y,n,n,n,n,N,N,n,,,-88.401715,41.9378602,"(41.9378602, -88.401715)"
105,Comprehensive SLP,778 W. Frontage Rd. Ste. 104,Northfield,60093,847.291.0700,mara.lane8@gmail.com,"778 W. Frontage Rd. Ste. 104 Northfield, IL 60093",http://comprehensiveslp.com/,N,Y,N,N,n,N,n,N,N,Y,n,y,n,n/A,n/A,n,0-18,y,n,n,n,n,N,N,n,,,-87.7768713,42.1122636,"(42.1122636, -87.7768713)"
106,EB Pediatric Resources,633 W. Addison,Chicago,60613,312.458.9865,pediatricresources@sbcglobal.net,"633 W. Addison Chicago, IL 60613",http://pediatricresources.org/,Y,Y,N,Y,Y,Y,n,N,N,N,y,y,n,n/A,n/A,n,0-18,y,n,n,n,n,N,N,n,,,-87.6467223,41.94729,"(41.94729, -87.6467223)"
107,Lina Lendraitis,720 Lake St. Ste. 201,Oak Park,60301,708.466.2211,slp.lina@gmail.com,"720 Lake St. Ste. 201 Oak Park, IL 60301",,N,Y,N,N,N,N,n,N,N,N,n,y,n,n/A,n/A,n,4 and up,y,n,n,n,n,N,N,n,,,-87.7936878,41.8888268,"(41.8888268, -87.7936878)"
108,Diane Gould,747 Lake Cook Rd. Ste. 213 E,Deerfield,60015,847.917.5385,dgould847@gmail.com,"747 Lake Cook Rd. Ste. 213 E Deerfield, IL 60015",http://dianegouldtherapy.com/,N,N,N,N,N,N,Y,N,N,N,N,Y,N,,,N,ALL AGES,N,N,N,N,N,N,N,N,,,-87.84661589999999,42.1523122,"(42.1523122, -87.84661589999999)"
109,Diane Gould,825 N. Cass Ave. Ste. 311,Westmont,60559,847.917.5385,dgould847@gmail.com,"825 N. Cass Ave. Ste. 311 Westmont, IL 60559",http://dianegouldtherapy.com/,N,N,N,N,N,N,Y,N,N,N,N,Y,N,,,N,ALL AGES,N,N,N,N,N,N,N,N,,,-87.97566560000001,41.8159866,"(41.8159866, -87.97566560000001)"
110,SociAbility Northbrook,899 Skokie Blvd.,Northbrook,60062,847.559.3240,staff@sociabilitychicago.org,"899 Skokie Blvd. Northbrook, IL 60062",https://www.sociabilitychicago.org/,N,N,N,N,N,N,Y,N,N,N,N,Y,N,,,N,ALL AGES,Y,Y,N,N,N,N,N,N,,,-87.7901931,42.1365634,"(42.1365634, -87.7901931)"
111,SociAbility Chicago,"500 N. Dearborn, Ste. 1012",Chicago,60654,847.559.3240,staff@sociabilitychicago.org,"500 N. Dearborn, Ste. 1012 Chicago, IL 60654",https://www.sociabilitychicago.org/,N,N,N,N,N,N,Y,N,N,N,N,Y,N,,,N,ALL AGES,Y,Y,N,N,N,N,N,N,,,-87.63009079999999,41.891129,"(41.891129, -87.63009079999999)"
112,Wellspring Clinical Associates,"5950 S. Lincoln Ave., Unit W",Lisle,60532,630.541.8930,,"5950 S. Lincoln Ave., Unit W Lisle, IL 60532",https://www.wca-il.com/,N,N,N,N,N,N,Y,Y,N,N,N,Y,N,,,N,ALL AGES,Y,Y,N,N,N,N,N,N,,,-88.07204999999999,41.7768171,"(41.7768171, -88.07204999999999)"
113,Oto Ling,1020 E. Ogden Ave. Ste 212,Naperville,60563,630.305.8288,otoling@mac.com,"1020 E. Ogden Ave. Ste 212 Naperville, IL 60563",http://www.otoling.com/Welcome_To_OtoLing.html,N,Y,N,N,N,N,n,N,N,N,n,y,n,n/A,n/A,n,3 and up,y,n,n,n,n,N,N,n,,,-88.1297809,41.790647,"(41.790647, -88.1297809)"
114,Play and Say Therapy,6650 N. Northwest Hwy. Ste. 208,Chicago,60631,773.775.6651,playandsaytherapy@gmail.com,"6650 N. Northwest Hwy. Ste. 208 Chicago, IL 60631",http://www.playandsaytherapy.com/index.html,N,Y,N,N,,N,n,N,N,Y,n,y,n,n/A,n/A,n,3 and up,y,n,n,n,n,N,N,n,,,-87.8147115,42.00165399999999,"(42.00165399999999, -87.8147115)"
115,Anna Rooney Speech Therapy,,Chicago,,773.680.6264,annaroon@comcast.net,,http://www.speechlanguagetherapychicago.com/home,N,Y,N,N,Y,N,n,N,N,N,y,n,n,n/A,n/A,n,all ages,n,n,n,n,n,N,N,n,,,,,
116,Social Butterfly Inc.,825 Cass Ave. Ste. 311,Westmont,60559,708.533.1543,info@sbspeechtherapy.com,"825 Cass Ave. Ste. 311 Westmont, IL 60559",http://www.sbspeechtherapy.com/,N,Y,N,N,N,N,N,N,N,Y,Y,Y,N,,,N,18 MOS AND UP,Y,N,N,N,N,N,N,N,,,-87.97566560000001,41.8159866,"(41.8159866, -87.97566560000001)"
117,"Sweeney, Augustin & Associates",5225 Old Orchard Rd. Ste. 44,Skokie,60077,847.583.9502,caugustin@sweeneyaugustin.com,"5225 Old Orchard Rd. Ste. 44 Skokie, IL 60077",http://sweeneyaugustin.com/,N,Y,N,N,,N,N,N,N,Y,N,Y,N,,,N,ALL AGES,?,N,N,N,N,N,N,N,,,-87.7585603,42.0624709,"(42.0624709, -87.7585603)"
118,Vital Rehabilitation,5820 W. Irving Park Rd.,Chicago,60634,773.685.8482,contact@vitalrehabilitation.com,"5820 W. Irving Park Rd. Chicago, IL 60634",http://vitalrehabilitation.businesscatalyst.com/index.html,Y,Y,Y,Y,Y,N,N,N,N,N,Y,Y,N,,,N,ALL AGES,Y,N,N,N,N,N,N,N,,AQUATIC THERAPY,-87.772758,41.953413,"(41.953413, -87.772758)"
119,Vital Rehabilitation,840 W. Irving Park Rd.,Chicago,60613,773.685.8482,contact@vitalrehabilitation.com,"840 W. Irving Park Rd. Chicago, IL 60613",http://vitalrehabilitation.businesscatalyst.com/index.html,Y,Y,Y,Y,Y,N,N,N,N,N,Y,Y,N,,,N,ALL AGES,Y,N,N,N,N,N,N,N,,AQUATIC THERAPY,-87.65108939999999,41.95468109999999,"(41.95468109999999, -87.65108939999999)"
120,Vital Rehabilitation,6445 N. Central Ave.,Chicago,60646,773.685.8482,contact@vitalrehabilitation.com,"6445 N. Central Ave. Chicago, IL 60646",http://vitalrehabilitation.businesscatalyst.com/index.html,Y,Y,Y,Y,Y,N,N,N,N,N,Y,Y,N,,,N,ALL AGES,Y,N,N,N,N,N,N,N,,AQUATIC THERAPY,-87.76313569999999,41.9986418,"(41.9986418, -87.76313569999999)"
121,Vital Rehabilitation,5647 N. Milwaukee Ave.,Chicago,69646,773.685.8482,contact@vitalrehabilitation.com,"5647 N. Milwaukee Ave. Chicago, IL 69646",http://vitalrehabilitation.businesscatalyst.com/index.html,Y,Y,Y,Y,Y,N,N,N,N,N,Y,Y,N,,,N,ALL AGES,Y,N,N,N,N,N,N,N,,AQUATIC THERAPY,-87.7751792,41.9842387,"(41.9842387, -87.7751792)"
122,Vital Rehabilitation,2632 E. Dempster St. ,Des Plaines,60016,773.685.8482,contact@vitalrehabilitation.com,"2632 E. Dempster St.  Des Plaines, IL 60016",http://vitalrehabilitation.businesscatalyst.com/index.html,Y,Y,Y,Y,Y,N,N,N,N,N,Y,Y,N,,,N,ALL AGES,Y,N,N,N,N,N,N,N,,AQUATIC THERAPY,-87.858682,42.0401299,"(42.0401299, -87.858682)"
123,Vital Rehabilitation,1025 W. Wise Rd. Ste. 100,Schaumburg,60193,773.685.8482,contact@vitalrehabilitation.com,"1025 W. Wise Rd. Ste. 100 Schaumburg, IL 60193",http://vitalrehabilitation.businesscatalyst.com/index.html,Y,Y,Y,Y,Y,N,N,N,N,N,Y,Y,N,,,N,ALL AGES,Y,N,N,N,N,N,N,N,,AQUATIC THERAPY,-88.10625399999999,42.00384500000001,"(42.00384500000001, -88.10625399999999)"
124,Vital Rehabilitation,11240 S. Western Ave.,Chicago,60643,773.685.8482,contact@vitalrehabilitation.com,"11240 S. Western Ave. Chicago, IL 60643",http://vitalrehabilitation.businesscatalyst.com/index.html,Y,Y,Y,Y,Y,N,N,N,N,N,Y,Y,N,,,N,ALL AGES,Y,N,N,N,N,N,N,N,,AQUATIC THERAPY,-87.6813426,41.6886058,"(41.6886058, -87.6813426)"
125,The Center for Hope & Healing,"16W241 S. Frontage Rd., Ste. 35",Burr Ridge,60527,630.468.2341,jkpaganis13@comcast.net,"16W241 S. Frontage Rd., Ste. 35 Burr Ridge, IL 60527",http://www.thecenterforhopeandhealing.com/index.php,Y,Y,N,Y,N,N,N,N,N,Y,N,Y,N,,,N,0-18 YRS,Y,N,N,N,N,N,N,N,,,-87.9411681,41.742066,"(41.742066, -87.9411681)"
126,Kids on the Grow,2157 N. Damen Ave. Suite 2C,Chicago,60647,773.278.4769,info@kidsonthegrow.com,"2157 N. Damen Ave. Suite 2C Chicago, IL 60647",http://www.kidsonthegrow.com/index,Y,Y,Y,N,N,N,N,N,N,N,N,Y,N,,,N,0-12 YRS,Y,N,N,N,N,N,N,N,,,-87.6774526,41.9211177,"(41.9211177, -87.6774526)"
127,ABA Midwest,1530 S. State,Chicago,60605,(312) 375-1000,,"1530 S. State Chicago, IL 60605",http://www.abamidwestltd.com/,N,N,N,N,N,Y,N,N,N,N,Y,N,N,,,N,2 AND UP,Y,N,N,N,N,N,N,N,,,-87.628152,41.86104700000001,"(41.86104700000001, -87.628152)"
128,ABS Behavioral Services,8833 Gross Pointe Rd.,Skokie,60077,770-880-8002,sarah@absbehavioralservices.com,"8833 Gross Pointe Rd. Skokie, IL 60077",http://www.absbehavioralservices.com/,N,N,N,N,N,Y,N,N,N,Y,Y,Y,N,,,N,0-18,Y,N,N,N,N,N,N,N,,,-87.75504649999999,42.0416943,"(42.0416943, -87.75504649999999)"
129,"BGF Performance Systems, LLC",4801 W. Peterson Ave. Suite 512,Chicago,60646,773.539.7099,info@bgfperformance.com,"4801 W. Peterson Ave. Suite 512 Chicago, IL 60646",http://www.bgfperformance.com/,N,N,N,N,N,Y,N,N,N,N,Y,Y,N,,,N,0-18,Y,N,N,N,N,N,N,N,,,-87.7490376,41.9895951,"(41.9895951, -87.7490376)"
130,"Mobile Therapy Centers of American, LLC",1870 W. Winchester Rd. #203,Libertyville,60048,847.816.7200,info@mtcus.com,"1870 W. Winchester Rd. #203 Libertyville, IL 60048",https://mtcus.com/,Y,Y,N,N,N,Y,N,N,N,N,Y,Y,N,,,N,ALL AGES,Y,N,N,N,N,N,N,N,,,-87.9941808,42.2981569,"(42.2981569, -87.9941808)"
131,"ABA Chicago, Inc",30 E. Huron St. #1106,Chicago,60611,847.997.7157,intake@abachicago.com,"30 E. Huron St. #1106 Chicago, IL 60611",http://www.abachicago.com/,N,N,N,N,Y,Y,N,N,N,N,Y,N,N,,,N,0-18,Y,N,N,N,N,N,N,N,,,-87.62658429999999,41.8951072,"(41.8951072, -87.62658429999999)"
132,Autism Family Center,560 Green Bay Road,Winnetka,60093,847.814.1096,laurenrabin@autismfamilycenter.com,"560 Green Bay Road Winnetka, IL 60093",http://www.autismfamilycenter.com/,N,n,n,n,n,y,n,n,n,n,y,y,Y,PREK-K,,N,ALL AGES,Y,N,N,N,N,N,N,N,,,-87.7345373,42.1065354,"(42.1065354, -87.7345373)"
133,Autism Family Center,3375 Commercial Ave.,Northbrook,60062,847.814.1096,laurenrabin@autismfamilycenter.com,"3375 Commercial Ave. Northbrook, IL 60062",http://www.autismfamilycenter.com/,N,n,n,n,n,y,n,n,n,n,y,y,Y,PREK-K,,N,ALL AGES,Y,N,N,N,N,N,N,N,,,-87.86177599999999,42.1461061,"(42.1461061, -87.86177599999999)"
134,Autism Family Center,670 W. Hubbard St.,Chicago,60654,847.814.1096,laurenrabin@autismfamilycenter.com,"670 W. Hubbard St. Chicago, IL 60654",http://www.autismfamilycenter.com/,N,n,n,n,n,y,n,n,n,n,y,y,Y,PREK-K,,N,ALL AGES,Y,N,N,N,N,N,N,N,,,-87.64558799999999,41.8903615,"(41.8903615, -87.64558799999999)"
135,"Autism Home Support Service, Inc.","85 Revere Drive, Suite AA",Northbrook,60062,847.564.0822,contact@autismhomesupport.com,"85 Revere Drive, Suite AA Northbrook, IL 60062",http://autismhomesupport.com/,N,Y,N,N,N,Y,n,n,n,n,y,y,n,,,N,ALL AGES,Y,N,N,N,N,N,N,N,,,-87.803963,42.1506704,"(42.1506704, -87.803963)"
136,"Autism Home Support Service, Inc.","3385 N. Arlington Heights Rd., Ste. K",Arlington Heights,60004,847.564.0822,contact@autismhomesupport.com,"3385 N. Arlington Heights Rd., Ste. K Arlington Heights, IL 60004",http://autismhomesupport.com/,N,Y,N,N,N,Y,n,n,n,n,y,y,n,,,N,ALL AGES,Y,N,N,N,N,N,N,N,,,-87.9845416,42.1366203,"(42.1366203, -87.9845416)"
137,Center for Autism & Related Disorders,212 S. Marion St. Suite 11,Oak Park ,60302,708.358.3000,m.remoquillo@centerforautism.com,"212 S. Marion St. Suite 11 Oak Park , IL 60302",http://www.centerforautism.com/,N,N,N,N,N,Y,N,N,N,N,Y,N,N,,,N,ALL AGES,Y,N,N,N,N,N,N,N,,,-87.802297,41.8851892,"(41.8851892, -87.802297)"
138,Center for Autism & Related Disorders,603 E. Diehl Rd. Ste. 123,Naperville,60563,331.826.0226,m.mattucci@centerforautism.com,"603 E. Diehl Rd. Ste. 123 Naperville, IL 60563",http://www.centerforautism.com/,N,N,N,N,N,Y,N,N,N,N,Y,N,N,,,N,ALL AGES,Y,N,N,N,N,N,N,N,,,-88.1377553,41.803655,"(41.803655, -88.1377553)"
139,Center for Autism & Related Disorders,"1801 W. Warner Ave., Ste. 101",Chicago,60613,708.358.3000,m.remoquillo@centerforautism.com,"1801 W. Warner Ave., Ste. 101 Chicago, IL 60613",http://www.centerforautism.com/,N,N,N,N,N,Y,N,N,N,N,Y,N,N,,,N,ALL AGES,Y,N,N,N,N,N,N,N,,,-87.6746793,41.9566908,"(41.9566908, -87.6746793)"
140,ABA of Illinois,4114 N. Water Tower Place Ste. C,Mt. Vernon,62864,618.603.6077,ikhan@abaofillinois.org,"4114 N. Water Tower Place Ste. C Mt. Vernon, IL 62864",http://www.abaofillinois.org/mtvernon.html,N,N,N,N,N,Y,N,N,N,N,Y,Y,N,,,N,ALL AGES,Y,N,N,N,N,N,N,N,,,-88.938717,38.307255,"(38.307255, -88.938717)"
141,ABA of Illinois,8149 Cass Ave.,Darien,60561,630.541.6441,ikhan@abaofillinois.org,"8149 Cass Ave. Darien, IL 60561",http://www.abaofillinois.org/dariencenter.html,N,N,N,N,N,Y,N,N,N,N,Y,Y,N,,n,n,3-18,y,n,n,n,n,N,N,n,,,-87.9728803,41.73994829999999,"(41.73994829999999, -87.9728803)"
142,Holtz Educational Center,8149 Cass Ave.,Darien,60561,630.541.6441,ikhan@abaofillinois.org,"8149 Cass Ave. Darien, IL 60561",http://www.abaofillinois.org/dariencenter.html,N,N,N,N,N,N,N,N,N,Y,N,Y,Y,Pre-K-8,y,y,3-15,n,n,n,n,n,N,N,n,,,-87.9728803,41.73994829999999,"(41.73994829999999, -87.9728803)"
143,Total Spectrum LLC,"650 West Grand Avenue, Suite 207",Elmhurst,60126,844.263.1613	info@totalspectrumcare.com,,"650 West Grand Avenue, Suite 207 Elmhurst, IL 60126",http://www.totalspectrumcare.com/,N,N,N,N,N,Y,N,N,N,N,Y,N,N,,,N,2-18,Y,N,N,N,N,N,N,N,,,-87.95993519999999,41.9254891,"(41.9254891, -87.95993519999999)"
144,Chicago Autism & Behavior Specialists,901 W. Hawthorn Dr.,Itasca,60143,800.844.1232,info@autismbehaviorspecialists.com,"901 W. Hawthorn Dr. Itasca, IL 60143",http://www.autismbehaviorspecialists.com/,N,N,N,N,N,Y,N,N,N,Y,Y,Y,Y,PRE-K,,n,,y,N,N,N,N,N,N,N,,,-88.0282376,41.96669199999999,"(41.96669199999999, -88.0282376)"
145,Comprehensive Early Autism Services (CEAS),1845 W. Eddy Street,Chicago,60657,219.730.6674,info@earlyautismservice.com,"1845 W. Eddy Street Chicago, IL 60657",http://autismtherapyindiana.com/,N,N,N,N,N,Y,N,N,N,N,Y,N,N,,,N,2-6 YRS,Y,N,N,N,N,N,N,N,,,-87.67569999999999,41.9457735,"(41.9457735, -87.67569999999999)"
146,Comprehensive Early Autism Services (CEAS),306 N. Kensington Ave.,La Grange Park,60526,312.965.2997,info@earlyautismservice.com,"306 N. Kensington Ave. La Grange Park, IL 60526",http://autismtherapychicago.com/,N,N,N,N,N,Y,N,N,N,N,Y,N,N,,,N,2-6 YRS,Y,N,N,N,N,N,N,N,,,-87.8751131,41.8199605,"(41.8199605, -87.8751131)"
147,GBC ABA,"101 Royce Rd., Ste. 12",Bolingbrook,60440,312.882.1024,info@gbcaba.com,"101 Royce Rd., Ste. 12 Bolingbrook, IL 60440",http://www.gbcaba.com/,N,N,N,N,Y,Y,N,N,N,y,Y,N,N,,,Y,ALL AGES,Y,N,N,N,Y,N,N,N,,,-88.0693865,41.7173453,"(41.7173453, -88.0693865)"
148,Journeys ABA Therapy,?,?,?,773.442.2485,journeysaba@gmail.com,"? ?, IL ?",http://www.journeysaba.com/Welcome.html,N,N,N,N,N,Y,N,N,N,N,Y,N,N,,,N,0-18,Y,N,N,N,N,N,N,N,,,-89.3985283,40.6331249,"(40.6331249, -89.3985283)"
149,JMK Behavior Services,120 W. Eastman St. Suite 102,Arlington Heights,60004,847.873.1505,info@jmkbehavior.org,"120 W. Eastman St. Suite 102 Arlington Heights, IL 60004",http://jmkbehaviorservices.org/,N,N,N,N,N,Y,N,N,N,Y,Y,Y,N,,,N,18 MOS AND UP,Y,N,N,N,N,N,N,N,,,-87.9851614,42.0862979,"(42.0862979, -87.9851614)"
150,ABC Behavioral Therapy,,,,630.402.6060,,,http://www.abcbehavioraltherapy.com/,N,N,N,N,N,Y,N,N,N,N,Y,N,N,,,N,2-8 yrs,Y,N,N,N,N,N,N,N,,,,,
151,Blue Light ABA Consultants,1100 E Woodfield Rd. Suite 140,Schaumburg,60173,847.975.2016,info@bluelightabaconsultants.com,"1100 E Woodfield Rd. Suite 140 Schaumburg, IL 60173",www.bluelightabaconsultants.com,N,N,N,N,N,Y,N,N,N,Y,Y,N,N,,,N,All ages,Y,N,N,N,N,N,N,N,,,-88.05304160000001,42.0444847,"(42.0444847, -88.05304160000001)"
152,Early Intervention for Autism,3503 Linneman St.,Glenview,60025,847.915.0164,jenniferm@earlyinterventionforautism.com,"3503 Linneman St. Glenview, IL 60025",http://www.earlyinterventionforautism.com/,N,N,N,N,N,Y,N,N,N,Y,Y,N,N,,,N,0-18YRS,,N,N,N,N,N,N,N,,,-87.84411659999999,42.069168,"(42.069168, -87.84411659999999)"
153,The Place for Children With Autism,401 S. Milwaukee Ave. Ste. 295,Wheeling,60090,224.241.1784,info@theplaceforchildrenwithautism.com,"401 S. Milwaukee Ave. Ste. 295 Wheeling, IL 60090",https://theplaceforchildrenwithautism.com/,N,N,N,N,N,N,N,N,N,Y,N,Y,Y,Pre-k,n,n,3-5,y,N,N,N,N,N,N,N,,,-87.9015276,42.1335934,"(42.1335934, -87.9015276)"
154,The Autism Therapy Group,,Chicago,,224.554.9634,info@theautismtherapygroup.com,,http://www.theautismtherapygroup.com/,N,N,N,N,N,Y,N,N,N,N,Y,N,N,,,N,2-22 YRS,Y,N,N,N,N,N,N,N,,,,,
155,Cornerstone Autism Services,8800 Bronx Ave. #100,Skokie,60077,855.855.2712,info@cornerstonesil.com,"8800 Bronx Ave. #100 Skokie, IL 60077",https://www.cornerstonesil.com/,N,N,N,N,N,Y,N,N,N,N,Y,N,N,,,N,2 and up,Y,N,N,N,N,N,N,N,,,,,
156,Guiding Behavior Counseling,,Chicago,,773.726.4832,info@guidingbehavior.com,,http://guidingbehavior.com/,N,N,N,N,N,Y,n,n,n,n,Y,N,N,,,N,All ages,y,N,N,N,Y,N,N,N,,,,,
157,Positive Behavior Connections,"2323 Naperville Rd., Ste. 265",Naperville,60563,331.457.5533,info@connectingbehavior.com,"2323 Naperville Rd., Ste. 265 Naperville, IL 60563",http://www.connectingbehavior.com/,N,N,N,N,N,Y,N,N,N,N,Y,Y,N,,,N,2-12 YRS,Y,N,N,N,N,N,N,N,,,-88.1148757,41.8146207,"(41.8146207, -88.1148757)"
158,Autism Behavior & Childhood Services,,Chicago,,312.420.2093,autismbehaviorchildhoodservice@gmail.com,,http://www.abctherapyforme.com/,N,N,N,N,N,Y,N,N,N,N,Y,N,N,,,N,2 AND UP,Y,N,N,N,N,N,N,N,,,,,
159,"Impacting Autism, LLC","1613 Colonial Pkwy, Ste. 200",Inverness,60067,847.363.2855,services@impactingautism.com,"1613 Colonial Pkwy, Ste. 200 Inverness, IL 60067",http://www.impactingautism.com,N,N,N,N,N,Y,N,N,N,N,Y,N,N,,,N,2-4,y,N,N,N,N,N,N,N,,,-88.0787418,42.08460789999999,"(42.08460789999999, -88.0787418)"
160,Hoover & Associates,16325 S. Harlem Ave. Ste. 200,Tinley Park,60477,708.429.6999,,"16325 S. Harlem Ave. Ste. 200 Tinley Park, IL 60477",https://hoover.associates/,N,N,N,N,N,N,N,N,N,N,N,Y,N,,,N,all ages,Y,Y,N,N,N,N,N,N,,,-87.7923357,41.5942014,"(41.5942014, -87.7923357)"
161,Aspiritech,1893 Sheridan Rd.,Highland Park,60035,312-945-8378,info@aspiritech.org,"1893 Sheridan Rd. Highland Park, IL 60035",http://aspiritech.org/,N,N,N,N,N,N,N,N,N,N,N,Y,N,,,N,18 and up,N,N,N,N,Y,Y,N,N,,,-87.79762009999999,42.1868849,"(42.1868849, -87.79762009999999)"
162,Oak-Leyden Developmental Services,411 Chicago Ave.,Oak Park,60302,708.524.1050,info@oak-leyden.org,"411 Chicago Ave. Oak Park, IL 60302",https://www.oak-leyden.org/,N,N,N,N,N,N,N,N,N,N,N,Y,N,,,N,18 and up,,N,Y,N,Y,Y,Y,N,,,-87.78551780000001,41.894299,"(41.894299, -87.78551780000001)"
163,Leep Forward,1280 W. Washington Blvd.,Chicago,60607,312.624.8750,lorell@leepforward.com,"1280 W. Washington Blvd. Chicago, IL 60607",http://www.leepforward.com/therapeutic-preschool/,Y,Y,N,Y,Y,Y,N,N,N,Y,Y,Y,Y,Prek-3,,n,0-18 yrs,Y,N,N,N,N,N,N,N,,,-87.6598242,41.8832113,"(41.8832113, -87.6598242)"
164,Black Bear Academy,1801 W. Byron,Chicago,60613,773.244.0500,info1718@blackbearacademy.com,"1801 W. Byron Chicago, IL 60613",http://www.blackbearacademy.com/,Y,Y,N,N,N,N,N,N,N,Y,N,Y,Y,Prek-3,,Y,18mos07 yrs,N,N,N,N,N,N,N,N,,,-87.6743711,41.9520387,"(41.9520387, -87.6743711)"
165,Beard Elementary School,6445 W. Strong St. ,Chicago,60656,773.534.1228,kmelton@cps.edu,"6445 W. Strong St.  Chicago, IL 60656",http://www.beard.cps.edu/,N,N,N,N,N,N,N,N,N,N,N,Y,Y,Prek-3,Y,N,3-9,N,N,N,N,N,N,N,N,,,-87.7900097,41.9699424,"(41.9699424, -87.7900097)"
166,Cherry Preschool,1418 Lake Street,Evanston,60201,847.492.1213,office@cherrypreschool.org,"1418 Lake Street Evanston, IL 60201",http://cherrypreschool.org/,N,N,N,N,N,N,N,N,N,N,N,Y,Y,Pre-k,,N,3-5,N,N,N,N,N,N,N,N,,,-87.692983,42.0439409,"(42.0439409, -87.692983)"
167,City Elementary,1100 East Hyde Park Blvd.,Chicago,60615,847.282.0450,info@cityelementary.com,"1100 East Hyde Park Blvd. Chicago, IL 60615",http://www.cityelementary.com/,N,N,N,N,N,N,N,N,N,N,N,Y,Y,K-3rd Grade,Y,n,5-9,N,N,N,N,N,N,N,N,,,-87.5986175,41.8028849,"(41.8028849, -87.5986175)"
168,New Horizon Center,6737 W. Forest Preserve Ave,Chicago,60634,773.286.6226,,"6737 W. Forest Preserve Ave Chicago, IL 60634",http://www.newhorizoncenter.org/,Y,Y,Y,N,N,N,N,N,N,N,N,Y,Y,pre-k-12,Y,y,all ages,N,N,N,N,Y,N,N,N,,,-87.7957466,41.9586877,"(41.9586877, -87.7957466)"
169,PACCT,7101 N Greenview Ave,Chicago,60626,773.338.9102,learningcenter@pactt.org,"7101 N Greenview Ave Chicago, IL 60626",http://www.pactt.org/learn/,Y,Y,N,N,N,N,N,N,N,Y,N,Y,Y,6-22 years,Y,Y,6-22,N,N,N,N,Y,Y,Y,N,,,-87.66770679999999,42.011767,"(42.011767, -87.66770679999999)"
170,Rush Day School,2150 W. Harrison St.,Chicago,60612,312.942.6627,,"2150 W. Harrison St. Chicago, IL 60612",https://www.rush.edu/services-treatments/child-and-adolescent-psychiatry-program/rush-day-school-rush-university-medical,Y,Y,N,N,N,N,N,N,N,Y,N,Y,Y,K-8,Y,Y,6-14,N,N,N,N,N,N,N,N,,,-87.6800717,41.8746624,"(41.8746624, -87.6800717)"
171,The Sonia Shankman Orthogenic School,1365 E. 60th St.,Chicago,60637,773.420.2900,info@oschool.org,"1365 E. 60th St. Chicago, IL 60637",http://orthogenicschool.uchicago.edu/index.html,N,N,N,N,N,N,N,Y,N,Y,N,Y,Y,K-12,Y,Y,5 AND UP,N,N,Y,N,N,N,N,N,,,-87.5917814,41.7857468,"(41.7857468, -87.5917814)"
172,Ferst School,6050 N California Ave.,Chicago,60659,773.761.4651 x235,,"6050 N California Ave. Chicago, IL 60659",http://www.anixter.org/find-services/literacy-education-and-professional-training-services/education,Y,Y,Y,N,N,N,N,N,N,Y,N,Y,Y,2-12,Y,Y,7-21,N,N,N,N,N,N,N,N,,,-87.69974839999999,41.9919099,"(41.9919099, -87.69974839999999)"
173,Anixter Center,6610 N. Clark St.,Chicago,60626,773.973.7900,askanixter@anixter.org,"6610 N. Clark St. Chicago, IL 60626",http://www.anixter.org/,N,N,N,N,N,N,N,N,N,Y,N,Y,N,,,N,18 AND UP,N,N,N,N,Y,N,Y,N,,,-87.672214,42.0019952,"(42.0019952, -87.672214)"
174,Brooke Whitted Center & House,6238 S Ellis,Chicago,60637,773.420.2596,info@bw-center.org,"6238 S Ellis Chicago, IL 60637",http://bw-center.org/,N,N,N,N,N,N,Y,Y,N,Y,N,Y,N,,,N,18 AND UP,N,N,N,N,Y,N,Y,N,,,-87.6013761,41.7810998,"(41.7810998, -87.6013761)"
175,Brooke Whitted Loft,1323 S. Michigan Ave.,Chicago,60605,773.420.2596,info@bw-center.org,"1323 S. Michigan Ave. Chicago, IL 60605",http://bw-center.org/,N,N,N,N,N,N,Y,Y,N,Y,N,Y,N,,,N,18 AND UP,N,N,N,N,Y,N,Y,N,,,-87.62396059999999,41.8650996,"(41.8650996, -87.62396059999999)"
176,Soaring Eagle Academy,800 Parkview Blvd.,Lombard,60148,630.323.2900,school@soaringeagleacademy.org,"800 Parkview Blvd. Lombard, IL 60148",http://soaringeagleacademy.org/index.php,Y,Y,N,N,N,N,N,N,N,Y,N,Y,Y,PREK-12,Y,Y,3-21,N,N,N,N,N,N,N,N,,,-88.034933,41.8695498,"(41.8695498, -88.034933)"
177,Camelot Therapeutic Day School of Naperville,1220 Bond St. Ste. 136,Naperville,60563,630.355.0200,mgurley@cameloteducation.org,"1220 Bond St. Ste. 136 Naperville, IL 60563",http://cameloteducation.org/our-schools/therapeutic-day-schools,N,N,N,N,N,N,N,N,N,Y,N,Y,Y,K-12,Y,Y,5-21 yrs,N,N,N,N,N,N,N,N,,,-88.2016024,41.7888232,"(41.7888232, -88.2016024)"
178,Camelot Therapeutic Day School of Hoffman Estates,5135 Trillium Blvd.,Hoffman Estates,60192,224.402.7408,aderwin@cameloteducation.org,"5135 Trillium Blvd. Hoffman Estates, IL 60192",http://cameloteducation.org/our-schools/therapeutic-day-schools,N,N,N,N,N,N,N,N,N,Y,N,Y,Y,K-12,Y,Y,6-21 yrs,N,N,N,N,N,N,N,N,,,-88.2081419,42.0785244,"(42.0785244, -88.2081419)"
179,Camelot Therapeutic Day School of Mount Prospect,580 Slawin Ct.,Mount Prospect,60056,224.612.8338,kmoravek@cameloteducation.org,"580 Slawin Ct. Mount Prospect, IL 60056",http://cameloteducation.org/our-schools/therapeutic-day-schools,N,N,N,N,N,N,N,N,N,Y,N,Y,Y,K-12,Y,Y,3-21 yrs,N,N,N,N,N,N,N,N,,,-87.9196139,42.076777,"(42.076777, -87.9196139)"
180,CST Academy,1422 W. Willow St. Ste 103,Chicago,60642,773.620.7800,quinnniego@gmail.com,"1422 W. Willow St. Ste 103 Chicago, IL 60642",www.chicagotherapeuticpreschool.com,Y,Y,N,N,N,Y,N,N,N,Y,N,Y,Y,PRE-K,,N,2-5,Y,N,N,N,N,N,N,N,,,-87.6628611,41.9145142,"(41.9145142, -87.6628611)"
181,New Hope Academy,6289 W. Howard St.,Niles,60714,847.588.0463,juliem@nhaweb.com,"6289 W. Howard St. Niles, IL 60714",http://www.nhaweb.com/,Y,Y,N,N,N,N,Y,N,N,Y,N,Y,Y,6-12,Y,Y,11-21,N,N,N,N,N,N,N,N,,,-87.785117,42.018079,"(42.018079, -87.785117)"
182,Winston Knolls School,2353 Hassell Road Suite 110,Hoffman Estates,60169,847.884.7030,info@winstonknolls-hecampus.org,"2353 Hassell Road Suite 110 Hoffman Estates, IL 60169",http://winstonknolls-hecampus.org/,N,N,N,N,N,N,N,N,N,N,N,Y,Y,PREK-12,Y,Y,3-19 YRS,N,N,N,N,N,N,N,N,,,-88.1362303,42.0611672,"(42.0611672, -88.1362303)"
183,Little City,1760 W. Algonquin Rd.,Palatine,60067,847.358.5510,,"1760 W. Algonquin Rd. Palatine, IL 60067",https://www.littlecity.org/programs/children/dayschool/,N,N,N,N,N,N,N,N,N,Y,N,Y,Y,PREK-12,Y,N,3 AND UP,,N,N,N,Y,Y,Y,N,,,-88.084542,42.0829996,"(42.0829996, -88.084542)"
184,Bridge High School,2318 Wisconsin Ave.,Downers Grove,60515,630.355.6533,info@lilfriends.com,"2318 Wisconsin Ave. Downers Grove, IL 60515",http://littlefriendsinc.org/childrens-services/#third,N,N,N,N,N,N,N,N,N,Y,N,Y,Y,9-12,Y,N,14-21,N,N,N,N,N,N,N,N,,,-88.041857,41.7903732,"(41.7903732, -88.041857)"
185,Blue Cap,2155 Broadway,Blue Island,60406,708.389.8137,jillp@blue-cap.org,"2155 Broadway Blue Island, IL 60406",http://www.blue-cap.org/schoolprogram.html,N,N,N,N,Y,N,N,N,N,N,N,Y,Y,K-12,Y,Y,5-21,N,N,N,N,Y,Y,Y,N,,,-87.675026,41.650337,"(41.650337, -87.675026)"
186,Acacia Academy,6425 Willow Springs Rd.,LaGrange,60525,708.579.5872,info@acaciaacademy.com,"6425 Willow Springs Rd. LaGrange, IL 60525",http://joomla.acaciaacademy.com/index.php?option=com_content&view=featured&Itemid=101,N,N,N,N,N,N,N,N,N,Y,N,Y,Y,1-12,Y,Y,5-22,N,N,N,N,Y,Y,N,N,,,-87.8867891,41.7726005,"(41.7726005, -87.8867891)"
187,Alexander Leigh Center for Autism,620 IL Route 31,Crystal Lake,60012,815.477.2522,,"620 IL Route 31 Crystal Lake, IL 60012",http://alcacenter.org/austism-programs-at-alca,N,N,N,N,N,N,N,N,N,Y,N,Y,Y,PREK-12,Y,Y,3-21,N,N,N,N,N,N,N,N,,,-88.2874293,42.2252143,"(42.2252143, -88.2874293)"
188,Yummy Dental & Orthodontics,3500 N. Lincoln Ave.,Chicago,60657,(773) 281-8100,chicago@yummydental.com,"3500 N. Lincoln Ave. Chicago, IL 60657",http://www.yummydental.com/pediatric-dentistry/special-needs-treatment,N,N,N,N,N,N,N,N,N,N,N,N,N,,,N,0-18,Y,N,N,Y,N,N,N,N,,,-87.6728147,41.9452711,"(41.9452711, -87.6728147)"
189,Yummy Dental & Orthodontics,1521 Waukegan Rd.,Glenview,60025,(847) 729-4700,glenview@yummdental.com,"1521 Waukegan Rd. Glenview, IL 60025",http://www.yummydental.com/pediatric-dentistry/special-needs-treatment,N,N,N,N,N,N,N,N,N,N,N,N,N,,,N,0-18,Y,N,N,Y,N,N,N,N,,,-87.797033,42.0824974,"(42.0824974, -87.797033)"
190,Algonquin Kids Dentistry,4097 W. Algonquin Rd.,Algonquin,60102,(224) 654-6543,,"4097 W. Algonquin Rd. Algonquin, IL 60102",http://www.algonquinkidsdentistry.com/pediatric-dentistry/special-needs-care/,N,N,N,N,N,N,N,N,N,N,N,N,N,,,N,0-18,Y,N,N,Y,N,N,N,N,,,-88.36292519999999,42.1756995,"(42.1756995, -88.36292519999999)"
191,All About Dentistry,1845 E. Rand Rd. Ste. 203,Arlington Heights,60004,(847) 870-0475,,"1845 E. Rand Rd. Ste. 203 Arlington Heights, IL 60004",http://www.allaboutkidsdentistry.com/,N,N,N,N,N,N,N,N,N,N,N,N,N,,,N,0-18,Y,N,N,Y,N,N,N,N,,,-87.9613589,42.0986988,"(42.0986988, -87.9613589)"
192,Every Tooth Counts Pediatric Dental Center,2711 Flossmoor Rd.,Flossmoor,60422,(708) 799-9755,info@everytoothcounts.com,"2711 Flossmoor Rd. Flossmoor, IL 60422",http://www.everytoothcounts.com/,N,N,N,N,N,N,N,N,N,N,N,N,N,,,N,0-18,N,N,N,Y,N,N,N,N,,,-87.6823678,41.5427916,"(41.5427916, -87.6823678)"
193,Glen Ellyn Pediatric Dentistry,"45 S. Park Blvd., Ste. 105",Glen Ellyn,60137,(630) 858-8755,gepd@babyteeth.net,"45 S. Park Blvd., Ste. 105 Glen Ellyn, IL 60137",http://www.babyteeth.net/,N,N,N,N,N,N,N,N,N,N,N,N,N,,,N,0-18,Y,N,N,Y,N,N,N,N,,,-88.0611557,41.8579725,"(41.8579725, -88.0611557)"
194,Grove Dental Associates,160 E Boughton Rd.,Bolingbrook,60440,(855) 375-1723,,"160 E Boughton Rd. Bolingbrook, IL 60440",http://www.grovedental.com/,N,N,N,N,N,N,N,N,N,N,N,N,N,,,N,0-18,Y,N,N,Y,N,N,N,N,,,-88.0667531,41.7126579,"(41.7126579, -88.0667531)"
195,Grove Dental Associates,6800 Main St. 3rd Floor,Downers Grove,60516,(855) 375-1723,,"6800 Main St. 3rd Floor Downers Grove, IL 60516",http://www.grovedental.com/,N,N,N,N,N,N,N,N,N,N,N,N,N,,,N,0-18,Y,N,N,Y,N,N,N,N,,,-88.0093239,41.7634406,"(41.7634406, -88.0093239)"
196,Grove Dental Associates,2 E. 22nd St. Ste. 201,Lombard,60148,(855) 375-1723,,"2 E. 22nd St. Ste. 201 Lombard, IL 60148",http://www.grovedental.com/,N,N,N,N,N,N,N,N,N,N,N,N,N,,,N,0-18,Y,N,N,Y,N,N,N,N,,,-88.0158996,41.8468025,"(41.8468025, -88.0158996)"
197,Grove Dental Associates,55 East Loop Rd. Ste. 201,Wheaton,60189,(855) 375-1723,,"55 East Loop Rd. Ste. 201 Wheaton, IL 60189",http://www.grovedental.com/,N,N,N,N,N,N,N,N,N,N,N,N,N,,,N,0-18,Y,N,N,Y,N,N,N,N,,,-88.10007399999999,41.8331649,"(41.8331649, -88.10007399999999)"
198,Stephen Heany DDS P.C.,64 Orland Square Dr.,Orland Park,60462,(708) 403-3393,,"64 Orland Square Dr. Orland Park, IL 60462",http://www.drheaneypediatricdentistry.com/,N,N,N,N,N,N,N,N,N,N,N,N,N,,,N,0-18,Y,N,N,Y,N,N,N,N,,,-87.84404599999999,41.6165351,"(41.6165351, -87.84404599999999)"
199,"Treasured Smiles Dentistry, LLC",10313 W. Lincoln Hwy.,Frankfort,60423,(815) 806-1600,mail@treasuredsmilesdentistry.com,"10313 W. Lincoln Hwy. Frankfort, IL 60423",http://www.treasuredsmilesdentistry.com/,N,N,N,N,N,N,N,N,N,N,N,N,N,,,N,0-18,N,N,N,Y,N,N,N,N,,,-87.867328,41.5045659,"(41.5045659, -87.867328)"
200,"McElroy Pediatric Dentistry, Ltd.",231 S. Gary Ave. Ste. 105,Bloomingdale,60108,(630) 948-8204,,"231 S. Gary Ave. Ste. 105 Bloomingdale, IL 60108",http://www.mcelroydds.com/,N,N,N,N,N,N,N,N,N,N,N,N,N,,,N,0-18,Y,N,N,Y,N,N,N,N,,,-88.118826,41.944705,"(41.944705, -88.118826)"
201,Orland Park Dentistry for Children,15300 West Ave. #110,Orland Park,60462,(708) 403-3330,,"15300 West Ave. #110 Orland Park, IL 60462",http://www.orlandparkdentistryforchildren.com/,N,N,N,N,N,N,N,N,N,N,N,N,N,,,N,0-18,Y,N,N,Y,N,N,N,N,,,-87.8650262,41.6114396,"(41.6114396, -87.8650262)"
202,Pediatric Dental Associates P.C.,690 N. IL Route 31,Crystal Lake ,60012,(815) 459-2727,,"690 N. IL Route 31 Crystal Lake , IL 60012",http://www.partnersinoralhealth1.com/,N,N,N,N,N,N,N,N,N,N,N,N,N,,,N,0-18,Y,N,N,Y,N,N,N,N,,,-88.28762239999999,42.2601608,"(42.2601608, -88.28762239999999)"
203,Pediatric Dental Associates P.C.,"195 N. Arlington Heights Rd, Ste. 150",Buffalo Grove,60089,(847) 537-7695,,"195 N. Arlington Heights Rd, Ste. 150 Buffalo Grove, IL 60089",http://www.partnersinoralhealth1.com/,N,N,N,N,N,N,N,N,N,N,N,N,N,,,N,0-18,Y,N,N,Y,N,N,N,N,,,-87.9822105,42.1561119,"(42.1561119, -87.9822105)"
204,"Hubbard Street Dance Program, The Autism Project",1147 W Jackson Blvd,Chicago,60607,312-850-9766,mmodrzejewski@hubbardstreetdance.com,"1147 W Jackson Blvd Chicago, IL 60607",https://www.hubbardstreetdance.com/programs-classes/adaptive-dance-program/the-autism-project-tap/,N,N,N,N,N,N,N,N,N,N,N,Y,N,,,N,5-14,N,N,Y,N,N,N,N,N,,,-87.6566747,41.8775723,"(41.8775723, -87.6566747)"
205,Chicago Blue Dolphins Special Abilities Swim,2222 N. Elston,Chicago,60614,773-342-7250,info@chicagobluedolphins.com,"2222 N. Elston Chicago, IL 60614",http://www.chicagobluedolphins.com/home/kids-swimming-lessons/special-abilities-swim-lessons/#overview,N,N,N,N,N,N,N,N,N,N,N,Y,N,,,N,ALL AGES,n,N,Y,N,N,N,N,N,,,-87.6732926,41.9218085,"(41.9218085, -87.6732926)"
206,Lenny Krayzelburg Swim Academy,5200 S Hyde Park Blvd ,Chicago,60615,773-753-3080,,"5200 S Hyde Park Blvd  Chicago, IL 60615",https://www.jccchicago.org/programs/aquatics-sports/aquatics/lenny-krayzelburg-swim-academy/,N,N,N,N,N,N,N,N,N,N,N,Y,N,,,N,ALL AGES,n,N,Y,N,N,N,N,N,,,-87.5850727,41.8008548,"(41.8008548, -87.5850727)"
207,Lenny Krayzelburg Swim Academy,5050 Church St.,Skokie,60077,847-763-3500,,"5050 Church St. Skokie, IL 60077",https://www.jccchicago.org/programs/aquatics-sports/aquatics/lenny-krayzelburg-swim-academy/,N,N,N,N,N,N,N,N,N,N,N,Y,N,,,N,ALL AGES,n,N,Y,N,N,N,N,N,,,-87.75380589999999,42.0495501,"(42.0495501, -87.75380589999999)"
208,Lenny Krayzelburg Swim Academy,3003 W. Touhy Ave,Chicago,60645,773-761-9100,,"3003 W. Touhy Ave Chicago, IL 60645",https://www.jccchicago.org/programs/aquatics-sports/aquatics/lenny-krayzelburg-swim-academy/,N,N,N,N,N,N,N,N,N,N,N,Y,N,,,N,ALL AGES,n,N,Y,N,N,N,N,N,,,-87.70561599999999,42.0110219,"(42.0110219, -87.70561599999999)"
209,Lenny Krayzelburg Swim Academy,300 Rever Dr.,Northbrook,60062,224-406-9200,,"300 Rever Dr. Northbrook, IL 60062",https://www.jccchicago.org/programs/aquatics-sports/aquatics/lenny-krayzelburg-swim-academy/,N,N,N,N,N,N,N,N,N,N,N,Y,N,,,N,ALL AGES,n,N,Y,N,N,N,N,N,,,-87.80292109999999,42.1466473,"(42.1466473, -87.80292109999999)"
210,"Second City, Improv for ASD",230 W. North Ave,Chicago,60614,(312)664-3959,,"230 W. North Ave Chicago, IL 60614",http://www.secondcity.com/classes/chicago/improv-for-asd/,N,N,N,N,N,N,N,N,N,N,N,Y,N,,,N,18 AND UP,n,N,Y,N,Y,N,N,N,,,-87.6354683,41.9114358,"(41.9114358, -87.6354683)"
211,Metropolis Performing Arts Center,111 W. Campbel St.,Arlington Heigths,60005,847.577.5982,,"111 W. Campbel St. Arlington Heigths, IL 60005",http://www.metropolisarts.com/sopa_community_engagement.php,N,N,N,N,N,N,N,N,N,N,N,Y,N,,,N,13 and up,N,N,Y,N,N,N,N,N,,"Flourish in the Footlights for young adults with special needs, and Clearbrook on Cue, for adults with special needs",-87.98477299999999,42.0827359,"(42.0827359, -87.98477299999999)"
212,"Chicago Children's Theatre, Camp Red Kite",100 S. Racine. Ave,Chicago,60607,773.226.0180,info@chicagochildrenstheatre.org,"100 S. Racine. Ave Chicago, IL 60607",http://chicagochildrenstheatre.org/campredkite/,N,N,N,N,N,N,N,N,N,N,N,Y,N,,,N,8-22,N,N,Y,N,N,N,N,N,,,-87.6574579,41.8801368,"(41.8801368, -87.6574579)"
213,Merchant Street Art Gallery of Artists with Autism,356 E. Merchant St.,Kankakee,60901,(815) 685-9057,info@merchantstreetartgallery.org,"356 E. Merchant St. Kankakee, IL 60901",http://www.merchantstreetartgallery.org/,N,N,N,N,N,N,N,N,N,N,N,Y,N,,,N,All ages,N,N,Y,N,Y,N,N,N,,Visual arts workshops for individuals with autism and their families,-87.8619767,41.1185387,"(41.1185387, -87.8619767)"
214,Project Onward Studio & Gallery,"1200 W. 35th St., 4th Fl.",Chicago,60609,(773) 940-2992,info@projectonward.org,"1200 W. 35th St., 4th Fl. Chicago, IL 60609",http://projectonward.org/,N,N,N,N,N,N,N,N,N,N,N,Y,N,,,N,21 and up,N,N,Y,N,Y,N,N,N,,,-87.656301,41.8308,"(41.8308, -87.656301)"
215,Urban Autism Solutions,1212 W. Flournoy St.,Chicago,60607,773.377.5691,info@jmtf.org,"1212 W. Flournoy St. Chicago, IL 60607",http://jmtf.org/,N,N,N,N,N,N,N,N,N,Y,N,Y,N,,,N,18 AND UP,N,N,N,N,Y,Y,Y,N,,,-87.6573806,41.8734054,"(41.8734054, -87.6573806)"
216,Washdog,1212 W. Flournoy St.,Chicago,60607,773.377.5691,info@jmtf.org,"1212 W. Flournoy St. Chicago, IL 60607",http://jmtf.org/washdog-2/,N,N,N,N,N,N,N,N,N,N,N,N,N,,,N,,N,N,N,N,N,N,N,Y,,Dog walking service,-87.6573806,41.8734054,"(41.8734054, -87.6573806)"
217,Colorburst,2302 Wisconsin Ave.,Downers Grove,60515,(630) 929-2725,maureen@cburst.com,"2302 Wisconsin Ave. Downers Grove, IL 60515",http://www.cburst.com,N,N,N,N,N,N,N,N,N,N,N,N,N,,,N,,N,N,N,N,N,N,N,Y,,Screen printing business,-88.0418294,41.79055,"(41.79055, -88.0418294)"
218,Inklude Studio,2302 Wisconsin Ave.,Downers Grove,60515,(630) 929-2711,sayhello@inklude.org,"2302 Wisconsin Ave. Downers Grove, IL 60515",http://inklude.org/,N,N,N,N,N,N,N,N,N,N,N,N,N,,,N,,N,N,N,N,N,N,N,Y,,,-88.0418294,41.79055,"(41.79055, -88.0418294)"
219,Harry's Buttons,1939 W. 13th St.,Chicago,60608,312.491.3945,,"1939 W. 13th St. Chicago, IL 60608",http://harrysbuttons.com/,N,N,N,N,N,N,N,N,N,N,N,N,N,,,N,,N,N,N,N,N,N,N,Y,,,-87.6747949,41.8646679,"(41.8646679, -87.6747949)"
220,Autonomy Works,5120 Belmont Rd. Ste. P,Downers Grove,60515,630.403.8356,contactus@emailautonomy.com,"5120 Belmont Rd. Ste. P Downers Grove, IL 60515",http://www.autonomy.works/,N,N,N,N,N,N,N,N,N,N,N,N,N,,,N,,N,N,N,N,N,Y,N,Y,,,-88.0383337,41.7940449,"(41.7940449, -88.0383337)"
221,Five Keys Yoga,1818 W. Belmont Ave. ,Chicago,60657,773.857.1763,erin@5keysyoga.com,"1818 W. Belmont Ave.  Chicago, IL 60657",https://www.5keysyoga.com/,N,N,N,N,N,N,N,N,N,N,N,N,N,,,N,all ages,N,N,Y,N,N,N,N,N,,,-87.6747496,41.9397275,"(41.9397275, -87.6747496)"
222,Five Keys Yoga,1306 Waukegan Rd. Ste. 205,Glenview,60025,847.899.0441,erin@5keysyoga.com,"1306 Waukegan Rd. Ste. 205 Glenview, IL 60025",https://www.5keysyoga.com/,N,N,N,N,N,N,N,N,N,N,N,N,N,,,N,all ages,N,N,Y,N,N,N,N,N,,,-87.7987697,42.0782508,"(42.0782508, -87.7987697)"
223,Chicago Superstars Soccer,3560 N. Recreation Dr.,Chicago,60613,312.469.0082,info@chicagosuperstarssocer.com,"3560 N. Recreation Dr. Chicago, IL 60613",https://www.chicagosuperstarssoccer.com/,N,N,N,N,N,N,N,N,N,N,N,Y,N,,,N,5-12,N,N,Y,N,N,N,N,N,,Soccer league,-87.6430663,41.9505842,"(41.9505842, -87.6430663)"
224,Institute for Therapy Through the Arts,2130 Green Bay Rd.,Evanston,60201,847.425.9708,info@itachicago.org,"2130 Green Bay Rd. Evanston, IL 60201",https://itachicago.org/,N,N,N,N,N,N,N,N,N,N,N,Y,N,,,N,ALL AGES,Y,N,Y,N,N,N,N,N,,"Music, art, dance therapy",-87.6926316,42.0566895,"(42.0566895, -87.6926316)"
225,Autism Workforce,1871 N Clybourn Ave. Ste. 205,Chicago,60614,773.575.5100,ashley@autismworkforce.com,"1871 N Clybourn Ave. Ste. 205 Chicago, IL 60614",http://autismworkforce.com/,N,N,N,N,N,N,N,N,N,N,N,Y,N,,,N,18 AND UP,N,N,N,N,N,Y,N,Y,,,-87.6551023,41.9152916,"(41.9152916, -87.6551023)"
226,"The Answer, Inc.","7600 Roosevelt Rd., Ste. 12",Forest Park,60130,708.296.5651,theanswerincnfp@gmail.com,"7600 Roosevelt Rd., Ste. 12 Forest Park, IL 60130",https://debra-vines.squarespace.com/,N,N,N,N,N,N,N,N,N,N,N,Y,N,,,Y,18 AND UP,N,N,Y,N,Y,Y,N,N,,,-87.81399499999999,41.86383319999999,"(41.86383319999999, -87.81399499999999)"
